<?xml version="1.0" encoding="utf-8" ?>
<kml xmlns="http://www.opengis.net/kml/2.2">
<Document id="root_doc">
<Schema name="1_project_area_as_of_12012023_corrected" id="1_project_area_as_of_12012023_corrected">
	<SimpleField name="fid" type="float"></SimpleField>
	<SimpleField name="layer" type="string"></SimpleField>
</Schema>
<Folder><name>1_project_area_as_of_12012023_corrected</name>
  <Placemark>
	<Style><LineStyle><color>ff0000ff</color></LineStyle><PolyStyle><fill>0</fill></PolyStyle></Style>
	<ExtendedData><SchemaData schemaUrl="#1_project_area_as_of_12012023_corrected">
		<SimpleData name="fid">1</SimpleData>
		<SimpleData name="layer">Project_area_007</SimpleData>
	</SchemaData></ExtendedData>
      <MultiGeometry><Polygon><outerBoundaryIs><LinearRing><coordinates>-63.2245498425156,-9.48180271920583 -63.22645804,-9.48334968 -63.22686621,-9.48345881 -63.2271419299275,-9.48257837487368 -63.2253948841368,-9.48129494830165 -63.22529634,-9.48143414000001 -63.2254132867033,-9.48185674026463 -63.2254809635656,-9.48192160631319 -63.22562995,-9.4820697 -63.225724572094,-9.48211170170752 -63.2258192399352,-9.4820803050272 -63.22597926,-9.48210814000001 -63.2261010870664,-9.48213607978056 -63.2262476696076,-9.482198656477 -63.2263898151404,-9.48237091081249 -63.22644176,-9.48248442 -63.22665351,-9.48253861000001 -63.22675077,-9.48258286000001 -63.22672926,-9.48263855 -63.22662744,-9.48291821999999 -63.2265367135706,-9.48291471347899 -63.2265388916928,-9.48279832245493 -63.22654779,-9.48262309000001 -63.22651216,-9.48259667 -63.226437,-9.48258397 -63.22638464,-9.48256412000001 -63.22629017,-9.48249155 -63.22619715,-9.48236211 -63.22604609,-9.48227278 -63.22589844,-9.48222688999999 -63.22583183,-9.48223932 -63.22570877,-9.48234549999999 -63.22565328,-9.48236405999999 -63.22554202,-9.48232795000001 -63.2254496565524,-9.48231332232768 -63.2251141,-9.48203706000001 -63.22504951,-9.48171612 -63.22496583,-9.48143348 -63.22492847,-9.48141501999999 -63.22475272,-9.48149538000001 -63.2238444,-9.48122442000001 -63.2245498425156,-9.48180271920583</coordinates></LinearRing></outerBoundaryIs></Polygon></MultiGeometry>
  </Placemark>
  <Placemark>
	<Style><LineStyle><color>ff0000ff</color></LineStyle><PolyStyle><fill>0</fill></PolyStyle></Style>
	<ExtendedData><SchemaData schemaUrl="#1_project_area_as_of_12012023_corrected">
		<SimpleData name="fid">2</SimpleData>
		<SimpleData name="layer">Project_area_010</SimpleData>
	</SchemaData></ExtendedData>
      <MultiGeometry><Polygon><outerBoundaryIs><LinearRing><coordinates>-63.2098453884634,-9.76570875568747 -63.2102627986732,-9.76502532706196 -63.2102181528681,-9.76486333871631 -63.210278211853,-9.76474459778647 -63.2100867122456,-9.76455487338561 -63.2098512584805,-9.76470105131333 -63.2096452111418,-9.76478879787465 -63.2094979861476,-9.76477428519743 -63.2091147783965,-9.76405896013801 -63.2088346957651,-9.76346039759686 -63.2089082032813,-9.76329971645876 -63.2089436772128,-9.76317382499365 -63.2088607675488,-9.76305763265629 -63.2086084172011,-9.76338246655104 -63.2098453884634,-9.76570875568747</coordinates></LinearRing></outerBoundaryIs></Polygon></MultiGeometry>
  </Placemark>
  <Placemark>
	<Style><LineStyle><color>ff0000ff</color></LineStyle><PolyStyle><fill>0</fill></PolyStyle></Style>
	<ExtendedData><SchemaData schemaUrl="#1_project_area_as_of_12012023_corrected">
		<SimpleData name="fid">3</SimpleData>
		<SimpleData name="layer">Project_area_011</SimpleData>
	</SchemaData></ExtendedData>
      <MultiGeometry><Polygon><outerBoundaryIs><LinearRing><coordinates>-63.2106578405891,-9.76452058865642 -63.21069648,-9.76405472999999 -63.2098339457507,-9.76293039960442 -63.2098204548357,-9.76303800300434 -63.2098003008256,-9.76311818312965 -63.2097639483232,-9.76314225583229 -63.209695246525,-9.76313027297832 -63.2096144171993,-9.76311028080276 -63.2095012536535,-9.76307828334029 -63.2094856805913,-9.76308829268816 -63.2094325869425,-9.76312241781012 -63.2093841369344,-9.76318658176726 -63.2093074661049,-9.76335498108678 -63.2092711585921,-9.76345120465085 -63.2093157555732,-9.76368767199427 -63.2094289906352,-9.76390095333389 -63.2094610956449,-9.76396142394074 -63.2095625379505,-9.76415249294918 -63.2098015618345,-9.7639678428992 -63.21021515,-9.76397563999999 -63.2102349858167,-9.76399445605948 -63.2104070860426,-9.76416800577998 -63.2103788403404,-9.76423215739118 -63.2105001943273,-9.76443651004647 -63.2105527808496,-9.76452466201025 -63.2106578405891,-9.76452058865642</coordinates></LinearRing></outerBoundaryIs></Polygon></MultiGeometry>
  </Placemark>
  <Placemark>
	<Style><LineStyle><color>ff0000ff</color></LineStyle><PolyStyle><fill>0</fill></PolyStyle></Style>
	<ExtendedData><SchemaData schemaUrl="#1_project_area_as_of_12012023_corrected">
		<SimpleData name="fid">4</SimpleData>
		<SimpleData name="layer">Project_area_012</SimpleData>
	</SchemaData></ExtendedData>
      <MultiGeometry><Polygon><outerBoundaryIs><LinearRing><coordinates>-63.1963772326785,-9.76189486972325 -63.1973776941235,-9.76231951216416 -63.1973725075385,-9.76217777495465 -63.1973265193783,-9.76207577114035 -63.1972804780832,-9.76188343608349 -63.1972701943926,-9.76175182612109 -63.1972293277718,-9.76168097967372 -63.1972139767345,-9.76161011845052 -63.1970863929512,-9.76160006798477 -63.1969996043293,-9.76153937237408 -63.1969026035692,-9.76146855834135 -63.1968974380184,-9.76136225615784 -63.1968463563901,-9.76127622911137 -63.1968973250341,-9.76116989448688 -63.196902350835,-9.76103827565611 -63.1969788349412,-9.76093192627114 -63.1969787576075,-9.76080031038858 -63.1969379357735,-9.76080539613938 -63.1968358470024,-9.76075989577703 -63.1967286076302,-9.76063340393878 -63.1966877382938,-9.76055749526736 -63.1966366805982,-9.76051196537829 -63.1966264298708,-9.7604360390254 -63.1966212763052,-9.7603499854276 -63.1965855219946,-9.76029432239499 -63.1965446557007,-9.76022347585312 -63.1964936425786,-9.76025387818537 -63.1963772326785,-9.76189486972325</coordinates></LinearRing></outerBoundaryIs></Polygon></MultiGeometry>
  </Placemark>
  <Placemark>
	<Style><LineStyle><color>ff0000ff</color></LineStyle><PolyStyle><fill>0</fill></PolyStyle></Style>
	<ExtendedData><SchemaData schemaUrl="#1_project_area_as_of_12012023_corrected">
		<SimpleData name="fid">5</SimpleData>
		<SimpleData name="layer">Project_area_013</SimpleData>
	</SchemaData></ExtendedData>
      <MultiGeometry><Polygon><outerBoundaryIs><LinearRing><coordinates>-63.19749524,-9.7630779 -63.19748468,-9.76307903 -63.19744323,-9.76308789000001 -63.19736051,-9.76310492 -63.19719564,-9.76313859999999 -63.19715291,-9.76315863 -63.19710392,-9.76319588 -63.19708167,-9.76323971000001 -63.19706355,-9.76326689000001 -63.19693276,-9.76341088999999 -63.1968519,-9.76355302000001 -63.19676457,-9.76368545 -63.19661982,-9.76400507 -63.19656455,-9.76412735999999 -63.19653387,-9.76423326 -63.19652903,-9.76432186 -63.1965211,-9.76444664 -63.19646553,-9.76466207 -63.19638523,-9.76491593 -63.19636999,-9.7649851 -63.19636553,-9.76513786 -63.19633926,-9.76533656999999 -63.19631714,-9.76546444999999 -63.19631453,-9.76554702999999 -63.19630195,-9.76573959 -63.1963076,-9.76579359 -63.19630173,-9.76586765999999 -63.19633261,-9.76592778 -63.19635323,-9.76601854 -63.19636737,-9.7662971 -63.19635775,-9.7665768 -63.19624619,-9.76715916000001 -63.19657606,-9.76716632999999 -63.19658214,-9.76714310999999 -63.19662689,-9.76702872000001 -63.19662944,-9.76698005999999 -63.19662784,-9.76694948 -63.19668756,-9.76689252 -63.19668827,-9.76685517999999 -63.19675591,-9.76681961999999 -63.19678463,-9.76681217 -63.1968184,-9.76680039000001 -63.19686164,-9.76678986000001 -63.19689362,-9.76677749999999 -63.19690253,-9.76675155 -63.19693474,-9.76674524 -63.19694459,-9.76663682 -63.19695272,-9.76659764999999 -63.19698345,-9.76658751999999 -63.19698174,-9.76656839 -63.19696755,-9.76654691999999 -63.19695579,-9.76650840999999 -63.19692511,-9.76647257 -63.19692412,-9.76638507 -63.19687353,-9.76631939999999 -63.1968468,-9.76624776 -63.19683989,-9.76614517000001 -63.19683745,-9.76612212 -63.19679698,-9.76608123000001 -63.19676689,-9.76606659 -63.19667338,-9.76601588 -63.19664265,-9.76597625 -63.1966254,-9.76595837 -63.19660586,-9.7658453 -63.19660901,-9.76579193999999 -63.19660592,-9.76575772999999 -63.19659934,-9.76569227 -63.19657675,-9.76561684 -63.19659691,-9.76554421999999 -63.19660409,-9.76545777999999 -63.19660104,-9.7654341 -63.19656577,-9.76538179 -63.19657969,-9.76533286 -63.19660409,-9.76525916999999 -63.19659965,-9.76523983000001 -63.19660399,-9.76519143999999 -63.1966153,-9.76514315000001 -63.19661038,-9.76512137 -63.19658767,-9.76503704999999 -63.19655959,-9.7649678 -63.1965481,-9.76487116000001 -63.19657439,-9.76482678 -63.19660567,-9.76477599 -63.19664401,-9.76472574 -63.19670152,-9.76469342 -63.19673337,-9.76468656 -63.19676428,-9.76471273 -63.19678757,-9.76471609 -63.19681027,-9.76470615 -63.19684802,-9.76470279999999 -63.19685547,-9.7646943 -63.19689663,-9.76463505999999 -63.19692301,-9.76459272 -63.19694968,-9.76456632000001 -63.19695636,-9.76453179999999 -63.19697169,-9.76448386 -63.19695878,-9.76443602 -63.19693608,-9.76437335 -63.19689768,-9.76429275999999 -63.19690434,-9.76422618 -63.19693925,-9.76415999 -63.19695286,-9.76410747 -63.19698671,-9.76405607 -63.19701042,-9.7640073 -63.19706331,-9.76398236999999 -63.19708983,-9.76396513999999 -63.19719814,-9.76391463 -63.19723167,-9.76386439000001 -63.19726926,-9.7637761 -63.19736494,-9.76370552 -63.19744668,-9.76365548 -63.19750577,-9.76360977000001 -63.19755205,-9.76355194 -63.19758472,-9.76349233 -63.19759571,-9.76348012000001 -63.19761132,-9.76343934000001 -63.19760871,-9.76339489999999 -63.19756155,-9.76327815999999 -63.19754501,-9.76322200999999 -63.19751919,-9.76316523 -63.19750104,-9.76310085000001 -63.19749524,-9.7630779</coordinates></LinearRing></outerBoundaryIs></Polygon></MultiGeometry>
  </Placemark>
  <Placemark>
	<Style><LineStyle><color>ff0000ff</color></LineStyle><PolyStyle><fill>0</fill></PolyStyle></Style>
	<ExtendedData><SchemaData schemaUrl="#1_project_area_as_of_12012023_corrected">
		<SimpleData name="fid">6</SimpleData>
		<SimpleData name="layer">Project_area_015</SimpleData>
	</SchemaData></ExtendedData>
      <MultiGeometry><Polygon><outerBoundaryIs><LinearRing><coordinates>-63.14936437,-9.85323975 -63.14932619,-9.85325662999999 -63.1492008057976,-9.85383694279453 -63.1492741340633,-9.85425698983503 -63.1491623448031,-9.85475181893485 -63.1489303382536,-9.85522963585426 -63.1492436751046,-9.85588921696266 -63.1494039990345,-9.85592032665721 -63.1494500256574,-9.85585531005671 -63.14933024,-9.85566784 -63.14926577,-9.85552195999999 -63.1492455102642,-9.85547524381685 -63.14922791,-9.85543466 -63.14919185,-9.85540902000001 -63.1491535348565,-9.85534908546718 -63.1491409019558,-9.85532274122713 -63.1491614673775,-9.855263005877 -63.1492411,-9.85519968 -63.1495632538784,-9.85554433201769 -63.1496084507923,-9.85546003168098 -63.14957026,-9.85535966000001 -63.14958191,-9.8552818 -63.1495347711098,-9.85520752423531 -63.1497053681832,-9.85520762578432 -63.1495826374773,-9.85505517309753 -63.14952773,-9.85494014 -63.14943505,-9.85484037 -63.14940767,-9.85477577 -63.14953081,-9.85462812000001 -63.14951863,-9.85450054000001 -63.14944292,-9.85445254 -63.14947779,-9.85438191999999 -63.1495183,-9.85428597 -63.14952171,-9.85405149000001 -63.14947954,-9.85398576 -63.14940966,-9.85388412000001 -63.14937526,-9.85381509 -63.14940273,-9.85365212 -63.14949291,-9.85348628 -63.14954259,-9.85339369 -63.14962334,-9.85343757 -63.14973974,-9.85343028 -63.14989182,-9.85335925000001 -63.15001652,-9.85334633 -63.1501402184358,-9.85327386049475 -63.15028174,-9.85325730999999 -63.15027899,-9.85325582000001 -63.1502776208228,-9.85307722800354 -63.14936437,-9.85323975</coordinates></LinearRing></outerBoundaryIs></Polygon></MultiGeometry>
  </Placemark>
  <Placemark>
	<Style><LineStyle><color>ff0000ff</color></LineStyle><PolyStyle><fill>0</fill></PolyStyle></Style>
	<ExtendedData><SchemaData schemaUrl="#1_project_area_as_of_12012023_corrected">
		<SimpleData name="fid">7</SimpleData>
		<SimpleData name="layer">Project_area_016</SimpleData>
	</SchemaData></ExtendedData>
      <MultiGeometry><Polygon><outerBoundaryIs><LinearRing><coordinates>-63.1500348137519,-9.85351291943091 -63.1498938977401,-9.85367541802695 -63.1497742971581,-9.85378782673241 -63.1495985524185,-9.85380787582283 -63.1495885537359,-9.85429556255082 -63.1496533249073,-9.85436487206038 -63.1496843464889,-9.85447747444834 -63.1498530115961,-9.85457977792856 -63.1499562553933,-9.85459679513346 -63.149966599043,-9.85464115447197 -63.1498289662987,-9.85467534168956 -63.1497414027495,-9.85486708459539 -63.1497016272154,-9.85503151806047 -63.1498847809449,-9.85520028392509 -63.1498172020153,-9.85555434824466 -63.1496121726421,-9.8558941780724 -63.1501635751126,-9.85590373264732 -63.1502593233434,-9.85350619928878 -63.1500348137519,-9.85351291943091</coordinates></LinearRing></outerBoundaryIs></Polygon></MultiGeometry>
  </Placemark>
</Folder>
</Document></kml>
