{"type":"FeatureCollection", "features":[
{"type":"Feature","geometry":{"type":"Polygon","coordinates":[[[-59.29816797399997,-9.286272225999944,0],[-59.27838106299999,-9.285539138999981,0],[-59.27826662499995,-9.28553489599995,0],[-59.27748112099994,-9.285505769999938,0],[-59.27731794699997,-9.285499695999935,0],[-59.27728947899994,-9.285498636999927,0],[-59.25706884999994,-9.284745367999951,0],[-59.25637105699997,-9.285782516999975,0],[-59.09532702999997,-9.287048965999924,0],[-59.10279102899994,-9.233942041999963,0],[-59.08051739099994,-9.234117633999963,0],[-59.08277232399996,-9.19120033299993,0],[-59.08210105299997,-9.14503333599992,0],[-59.10230850799996,-9.145493906999938,0],[-59.18347388199999,-9.145884693999957,0],[-59.19167486599996,-9.146201651999943,0],[-59.25359824499998,-9.14858884699992,0],[-59.25241063899995,-9.085491898999978,0],[-59.25239312799994,-9.084560324999917,0],[-59.25182384099998,-9.000496989999922,0],[-59.34645456899994,-9.000200080999935,0],[-59.42665671599996,-8.999316351999937,0],[-59.42678540699996,-8.999466721999969,0],[-59.42616803399995,-9.003031840999945,0],[-59.42441883499999,-9.004801119999971,0],[-59.42103956499994,-9.006309411999949,0],[-59.41824692999996,-9.008468691999951,0],[-59.41418741799998,-9.010414596999965,0],[-59.41101738399993,-9.013297535999932,0],[-59.40868777599996,-9.016293185999931,0],[-59.40682244199996,-9.02010448599997,0],[-59.40600418599996,-9.022809993999946,0],[-59.40576457899994,-9.026899652999935,0],[-59.40491337399993,-9.031190969999944,0],[-59.40138045199996,-9.038129297999944,0],[-59.39952090099996,-9.042355864999932,0],[-59.39648110999997,-9.044625952999969,0],[-59.38980091199994,-9.047140765999933,0],[-59.38506392399995,-9.049113737999967,0],[-59.38114181199995,-9.05282373499994,0],[-59.37542414099993,-9.055915603999946,0],[-59.37256027499996,-9.058691552999953,0],[-59.37009504499996,-9.064271527999953,0],[-59.37014641699994,-9.065170864999963,0],[-59.37617155999994,-9.087347651999947,0],[-59.37474431199995,-9.088643652999963,0],[-59.37657980599996,-9.092492530999955,0],[-59.37699135999998,-9.09559438599995,0],[-59.37920006999996,-9.100087220999967,0],[-59.37838172399996,-9.105070494999953,0],[-59.38303219599993,-9.110315886999947,0],[-59.38336220899998,-9.112295097999938,0],[-59.38338578099998,-9.11441619299996,0],[-59.38299501899997,-9.116021595999937,0],[-59.38398568599996,-9.11761798799995,0],[-59.38486235999995,-9.121107184999977,0],[-59.38281986199996,-9.122614507999973,0],[-59.37823692699993,-9.124777296999987,0],[-59.37593018499995,-9.12899162899992,0],[-59.37456342499996,-9.130818909999952,0],[-59.37227228699999,-9.132679158999972,0],[-59.37171808599999,-9.134457876999921,0],[-59.37120236099998,-9.135865058999965,0],[-59.36812368299996,-9.140150380999959,0],[-59.36523452999995,-9.141632721999946,0],[-59.36328577599993,-9.143201200999947,0],[-59.36116947199997,-9.146920019999929,0],[-59.36325528699995,-9.14996967599996,0],[-59.36729720299996,-9.149382797999984,0],[-59.36804792599997,-9.151213058999922,0],[-59.36790393099995,-9.153976610999962,0],[-59.36626665099993,-9.157864243999942,0],[-59.36296367299996,-9.161359616999963,0],[-59.36061440199996,-9.164195256999951,0],[-59.35735756399998,-9.16509829899997,0],[-59.35680623699994,-9.166536292999986,0],[-59.35611146599995,-9.167326226999936,0],[-59.35483531599994,-9.167733095999948,0],[-59.35523685099997,-9.169213602999944,0],[-59.35163734199995,-9.173644204999967,0],[-59.35295418099997,-9.174703320999988,0],[-59.35148074199998,-9.177029063999955,0],[-59.35317781099997,-9.179606619999953,0],[-59.35570656699996,-9.180502664999953,0],[-59.35814317799997,-9.180423714999954,0],[-59.35990534799999,-9.182174508999932,0],[-59.36068326799995,-9.183961163999978,0],[-59.35993295299994,-9.186634320999934,0],[-59.35826924699995,-9.18798366799997,0],[-59.35539648599997,-9.189633043999947,0],[-59.35393420499998,-9.190735007999937,0],[-59.35112117199998,-9.190890240999972,0],[-59.35010531399997,-9.193057819999982,0],[-59.34932310699998,-9.195620429999963,0],[-59.34943141299994,-9.198040768999922,0],[-59.35051788999993,-9.199730199999978,0],[-59.35040084699994,-9.201373728999954,0],[-59.35137507899997,-9.202629713999958,0],[-59.35052956099997,-9.203355884999949,0],[-59.34983662499996,-9.204879177999947,0],[-59.35057298899995,-9.205404250999948,0],[-59.35107252299998,-9.206831585999959,0],[-59.35420572199997,-9.208224493999982,0],[-59.35495578099994,-9.209762510999958,0],[-59.35420377099997,-9.211117620999971,0],[-59.35436313199994,-9.212942723999962,0],[-59.35633482599997,-9.21373550999993,0],[-59.36135609199994,-9.211598644999983,0],[-59.36476283699994,-9.211534229999929,0],[-59.36811697899997,-9.215309837999934,0],[-59.37063215899996,-9.219349648999977,0],[-59.36951415199997,-9.220926914999945,0],[-59.37000517099995,-9.222424181999948,0],[-59.37187417199993,-9.222862850999952,0],[-59.37266943199995,-9.224292197999953,0],[-59.37528770999995,-9.22651166799994,0],[-59.37747303999999,-9.228702388999984,0],[-59.37705992499996,-9.229945959999961,0],[-59.37693788299998,-9.232333815999931,0],[-59.37761984099995,-9.233967797999975,0],[-59.38165455799997,-9.23562616199996,0],[-59.38202576999999,-9.239382852999938,0],[-59.38385771799994,-9.242899671999973,0],[-59.38366172399998,-9.24428237099995,0],[-59.38445350299998,-9.245946300999954,0],[-59.38659595099995,-9.247053111999946,0],[-59.38908833899995,-9.251630205999959,0],[-59.38808324599995,-9.256676648999937,0],[-59.38908921899997,-9.25807475299997,0],[-59.38695025299995,-9.260465672999933,0],[-59.38005396599993,-9.264548110999947,0],[-59.37566218399995,-9.270613718999918,0],[-59.37616220099995,-9.273235663999973,0],[-59.37775189399996,-9.274743812999937,0],[-59.37967572299993,-9.279066020999945,0],[-59.38170804499998,-9.279884329999966,0],[-59.38207141199998,-9.281946125999976,0],[-59.38272716299997,-9.283705348999952,0],[-59.38472211599997,-9.285701435999961,0],[-59.38493500499993,-9.286619441999957,0],[-59.38606867799997,-9.288070394999986,0],[-59.38636443099994,-9.288787590999954,0],[-59.35568046299994,-9.287998531999955,0],[-59.33913504099996,-9.28757195199995,0],[-59.31991355699995,-9.287075405999934,0],[-59.31847911199997,-9.287038307999982,0],[-59.31835989299998,-9.287033814999969,0],[-59.29816797399997,-9.286272225999944,0]]]},"properties":{"OID_":0,"Name":"Placemark","FolderPath":"Florestal_Santa_Maria/aprojeto","SymbolID":0,"AltitudeMo":0,"Clamped":-1,"Extruded":0,"Snippet":"","PopupInfo":"","Shape_Leng":1.34792,"Shape_Area":0.058951}}
]}
