{"type":"FeatureCollection", "features":[
{"type":"Feature","id":"ID_00000","geometry":{"type":"MultiPolygon","coordinates":[[[[-72.752274,-8.044097,0],[-72.723636,-8.061159,0],[-72.725095,-8.07287,0],[-72.733981,-8.108862,0],[-72.743605,-8.146955,0],[-72.725676,-8.153794,0],[-72.62935,-8.23348,0],[-72.641563,-8.255463,0],[-72.54784,-8.36139,0],[-72.491281,-8.276622,0],[-72.49354,-8.272706,0],[-72.494971,-8.270733,0],[-72.499567,-8.265553,0],[-72.508468,-8.263839,0],[-72.511906,-8.262533,0],[-72.516168,-8.257112,0],[-72.517559,-8.254591,0],[-72.518512,-8.251846,0],[-72.518302,-8.24992,0],[-72.518318,-8.244821,0],[-72.51847,-8.239322,0],[-72.518069,-8.234794,0],[-72.518801,-8.232661,0],[-72.518796,-8.229182,0],[-72.518119,-8.224589,0],[-72.51742,-8.222175,0],[-72.517733,-8.220049,0],[-72.518325,-8.218096,0],[-72.519015,-8.217129,0],[-72.519755,-8.216549,0],[-72.522993,-8.216431,0],[-72.525476,-8.216626,0],[-72.527542,-8.216465,0],[-72.528269,-8.21531,0],[-72.528365,-8.213244,0],[-72.528759,-8.211965,0],[-72.529492,-8.211347,0],[-72.531398,-8.211625,0],[-72.532476,-8.211576,0],[-72.533239,-8.211108,0],[-72.533342,-8.210011,0],[-72.533434,-8.209219,0],[-72.53493,-8.210459,0],[-72.53572,-8.209666,0],[-72.536533,-8.20872,0],[-72.536849,-8.207495,0],[-72.537548,-8.206758,0],[-72.538261,-8.206223,0],[-72.541195,-8.204908,0],[-72.543177,-8.203827,0],[-72.54432,-8.202702,0],[-72.546,-8.201438,0],[-72.547245,-8.200326,0],[-72.547234,-8.199642,0],[-72.546736,-8.199135,0],[-72.544634,-8.198868,0],[-72.543316,-8.198625,0],[-72.543005,-8.197764,0],[-72.543579,-8.197161,0],[-72.544279,-8.196083,0],[-72.544595,-8.195512,0],[-72.545091,-8.19591,0],[-72.546218,-8.195576,0],[-72.547328,-8.194664,0],[-72.549036,-8.193802,0],[-72.550588,-8.192971,0],[-72.551608,-8.192642,0],[-72.552279,-8.192,0],[-72.553028,-8.191031,0],[-72.553686,-8.190628,0],[-72.554704,-8.190864,0],[-72.554902,-8.190365,0],[-72.555088,-8.188689,0],[-72.555513,-8.188704,0],[-72.556139,-8.187789,0],[-72.556581,-8.187261,0],[-72.556988,-8.18824,0],[-72.557775,-8.187974,0],[-72.558328,-8.186938,0],[-72.559182,-8.187303,0],[-72.559916,-8.187638,0],[-72.559962,-8.188145,0],[-72.560519,-8.188538,0],[-72.561559,-8.188345,0],[-72.562534,-8.188511,0],[-72.563185,-8.18799,0],[-72.563345,-8.187124,0],[-72.563267,-8.185232,0],[-72.563197,-8.184477,0],[-72.563591,-8.184402,0],[-72.564489,-8.184634,0],[-72.565431,-8.184099,0],[-72.565601,-8.183397,0],[-72.565547,-8.182623,0],[-72.564631,-8.182164,0],[-72.564895,-8.181783,0],[-72.565694,-8.181847,0],[-72.56727,-8.181329,0],[-72.568522,-8.181736,0],[-72.569381,-8.181366,0],[-72.57002,-8.180684,0],[-72.569859,-8.179475,0],[-72.570686,-8.179123,0],[-72.571641,-8.177878,0],[-72.571572,-8.177137,0],[-72.571919,-8.177107,0],[-72.572567,-8.176475,0],[-72.572468,-8.175412,0],[-72.571866,-8.174441,0],[-72.572379,-8.173433,0],[-72.572816,-8.172437,0],[-72.57333,-8.171112,0],[-72.573229,-8.169862,0],[-72.573812,-8.169362,0],[-72.57343,-8.168284,0],[-72.572883,-8.167353,0],[-72.573043,-8.166801,0],[-72.573983,-8.166909,0],[-72.574308,-8.166064,0],[-72.573632,-8.165294,0],[-72.572974,-8.164717,0],[-72.572532,-8.163827,0],[-72.572488,-8.162815,0],[-72.572235,-8.161563,0],[-72.571459,-8.160654,0],[-72.571564,-8.159558,0],[-72.571161,-8.158108,0],[-72.570484,-8.157206,0],[-72.570601,-8.156093,0],[-72.570994,-8.154533,0],[-72.571113,-8.153491,0],[-72.571553,-8.152436,0],[-72.571208,-8.151417,0],[-72.570404,-8.150223,0],[-72.569124,-8.149261,0],[-72.569007,-8.148602,0],[-72.569695,-8.148287,0],[-72.569532,-8.146637,0],[-72.570107,-8.146026,0],[-72.571395,-8.145205,0],[-72.573014,-8.144028,0],[-72.573939,-8.143044,0],[-72.574998,-8.141626,0],[-72.574913,-8.139647,0],[-72.573903,-8.13807,0],[-72.573994,-8.137669,0],[-72.574826,-8.136868,0],[-72.576034,-8.135418,0],[-72.576811,-8.134823,0],[-72.576992,-8.133057,0],[-72.576796,-8.130823,0],[-72.575769,-8.130476,0],[-72.57611,-8.130104,0],[-72.577234,-8.129874,0],[-72.578862,-8.130161,0],[-72.580192,-8.129799,0],[-72.580108,-8.128527,0],[-72.57954,-8.127849,0],[-72.580118,-8.126721,0],[-72.580988,-8.125798,0],[-72.582393,-8.125787,0],[-72.582736,-8.12456,0],[-72.583522,-8.123543,0],[-72.583182,-8.122713,0],[-72.58342,-8.12241,0],[-72.584037,-8.12268,0],[-72.585021,-8.122457,0],[-72.585241,-8.121673,0],[-72.584863,-8.120543,0],[-72.583741,-8.120386,0],[-72.583045,-8.120115,0],[-72.584426,-8.118661,0],[-72.585685,-8.117309,0],[-72.585481,-8.116303,0],[-72.586402,-8.115278,0],[-72.58729,-8.1142,0],[-72.587675,-8.113224,0],[-72.588832,-8.112917,0],[-72.589549,-8.112387,0],[-72.589588,-8.111642,0],[-72.589969,-8.111067,0],[-72.590699,-8.111269,0],[-72.591307,-8.110887,0],[-72.591806,-8.110199,0],[-72.592174,-8.109956,0],[-72.592897,-8.110054,0],[-72.59377,-8.10973,0],[-72.594226,-8.109058,0],[-72.595148,-8.10884,0],[-72.596066,-8.108891,0],[-72.596812,-8.10836,0],[-72.5967,-8.107719,0],[-72.598032,-8.107736,0],[-72.598863,-8.106298,0],[-72.599429,-8.104842,0],[-72.600175,-8.104081,0],[-72.600316,-8.103331,0],[-72.60117,-8.103301,0],[-72.60122,-8.102389,0],[-72.600867,-8.101683,0],[-72.60198,-8.101585,0],[-72.603104,-8.100714,0],[-72.603371,-8.099523,0],[-72.603977,-8.099001,0],[-72.604796,-8.098732,0],[-72.605299,-8.09763,0],[-72.604593,-8.097272,0],[-72.604055,-8.096912,0],[-72.604521,-8.096565,0],[-72.605197,-8.096524,0],[-72.60628,-8.096026,0],[-72.607032,-8.094797,0],[-72.607153,-8.09401,0],[-72.606809,-8.093359,0],[-72.60518,-8.093354,0],[-72.605994,-8.092688,0],[-72.606764,-8.09223,0],[-72.606924,-8.091614,0],[-72.607457,-8.091522,0],[-72.608299,-8.091074,0],[-72.608902,-8.090364,0],[-72.609713,-8.090002,0],[-72.610326,-8.089314,0],[-72.610247,-8.088242,0],[-72.610699,-8.087447,0],[-72.610712,-8.08682,0],[-72.610197,-8.086514,0],[-72.611156,-8.085644,0],[-72.61177,-8.084832,0],[-72.612313,-8.084199,0],[-72.612562,-8.083463,0],[-72.612816,-8.083101,0],[-72.613406,-8.082905,0],[-72.614144,-8.082558,0],[-72.615389,-8.082564,0],[-72.615825,-8.082863,0],[-72.616415,-8.082767,0],[-72.616816,-8.081795,0],[-72.61721,-8.080946,0],[-72.617619,-8.08054,0],[-72.617929,-8.080679,0],[-72.618137,-8.081332,0],[-72.618669,-8.081693,0],[-72.619161,-8.081898,0],[-72.619613,-8.08192,0],[-72.620306,-8.081365,0],[-72.620156,-8.080608,0],[-72.62035,-8.080057,0],[-72.62076,-8.079629,0],[-72.621533,-8.079391,0],[-72.621839,-8.078666,0],[-72.621673,-8.07802,0],[-72.622017,-8.076883,0],[-72.622694,-8.075764,0],[-72.623333,-8.074691,0],[-72.623333,-8.073863,0],[-72.623175,-8.073342,0],[-72.623058,-8.07288,0],[-72.623647,-8.072404,0],[-72.624592,-8.072537,0],[-72.625168,-8.072596,0],[-72.625857,-8.072605,0],[-72.625951,-8.073067,0],[-72.626375,-8.073534,0],[-72.627205,-8.073297,0],[-72.62748,-8.073033,0],[-72.628112,-8.073229,0],[-72.628547,-8.073552,0],[-72.629252,-8.073078,0],[-72.629529,-8.073632,0],[-72.630492,-8.073282,0],[-72.631362,-8.072807,0],[-72.632125,-8.072858,0],[-72.633178,-8.073223,0],[-72.633743,-8.072705,0],[-72.633962,-8.07237,0],[-72.634229,-8.072239,0],[-72.634848,-8.072168,0],[-72.635201,-8.072074,0],[-72.635686,-8.071642,0],[-72.63546,-8.070632,0],[-72.636763,-8.070572,0],[-72.637272,-8.070955,0],[-72.637514,-8.071623,0],[-72.638002,-8.072261,0],[-72.638916,-8.071822,0],[-72.639352,-8.071663,0],[-72.63899,-8.072584,0],[-72.63957,-8.073182,0],[-72.640342,-8.073309,0],[-72.640752,-8.072828,0],[-72.640715,-8.072053,0],[-72.641021,-8.072244,0],[-72.641247,-8.0729,0],[-72.641887,-8.073485,0],[-72.642516,-8.073589,0],[-72.642994,-8.073842,0],[-72.643321,-8.074502,0],[-72.643954,-8.074391,0],[-72.644315,-8.073973,0],[-72.645158,-8.073757,0],[-72.646202,-8.073485,0],[-72.647472,-8.073175,0],[-72.648392,-8.072612,0],[-72.648557,-8.071653,0],[-72.64906,-8.071396,0],[-72.649584,-8.07058,0],[-72.649922,-8.071438,0],[-72.650736,-8.071561,0],[-72.651415,-8.071555,0],[-72.652103,-8.07084,0],[-72.653491,-8.069953,0],[-72.65386,-8.069492,0],[-72.655023,-8.06899,0],[-72.655911,-8.068656,0],[-72.656734,-8.067889,0],[-72.657188,-8.067192,0],[-72.657937,-8.066534,0],[-72.658914,-8.065849,0],[-72.659903,-8.066136,0],[-72.660498,-8.06602,0],[-72.660982,-8.065239,0],[-72.660989,-8.06396,0],[-72.661055,-8.063014,0],[-72.662207,-8.062986,0],[-72.66265,-8.063169,0],[-72.663368,-8.062593,0],[-72.663679,-8.061964,0],[-72.663823,-8.061207,0],[-72.66452,-8.060482,0],[-72.664921,-8.061481,0],[-72.665844,-8.061754,0],[-72.666876,-8.061079,0],[-72.667239,-8.060102,0],[-72.666724,-8.059097,0],[-72.666514,-8.058275,0],[-72.667127,-8.058554,0],[-72.668111,-8.058414,0],[-72.669035,-8.058727,0],[-72.669566,-8.059075,0],[-72.670417,-8.058964,0],[-72.670837,-8.058076,0],[-72.671449,-8.057394,0],[-72.672497,-8.056756,0],[-72.673091,-8.056178,0],[-72.673369,-8.055491,0],[-72.673726,-8.055175,0],[-72.674599,-8.055166,0],[-72.675415,-8.05506,0],[-72.676226,-8.054984,0],[-72.677007,-8.054544,0],[-72.677437,-8.053746,0],[-72.677806,-8.052974,0],[-72.678512,-8.052619,0],[-72.679185,-8.051762,0],[-72.679501,-8.0505,0],[-72.680014,-8.049567,0],[-72.681082,-8.049469,0],[-72.682112,-8.049276,0],[-72.682402,-8.04849,0],[-72.682742,-8.048179,0],[-72.683075,-8.048242,0],[-72.682955,-8.049008,0],[-72.683205,-8.049646,0],[-72.68381,-8.04986,0],[-72.684575,-8.049546,0],[-72.685015,-8.048889,0],[-72.685478,-8.047918,0],[-72.685956,-8.047677,0],[-72.686296,-8.048028,0],[-72.687066,-8.047775,0],[-72.687292,-8.047317,0],[-72.687731,-8.048195,0],[-72.688371,-8.048899,0],[-72.688984,-8.048931,0],[-72.689492,-8.048415,0],[-72.690036,-8.048664,0],[-72.690354,-8.049027,0],[-72.691295,-8.048797,0],[-72.69182,-8.048099,0],[-72.692268,-8.048749,0],[-72.693042,-8.049076,0],[-72.694104,-8.049376,0],[-72.695332,-8.049447,0],[-72.695896,-8.049054,0],[-72.696008,-8.048369,0],[-72.696726,-8.047974,0],[-72.697009,-8.047306,0],[-72.696694,-8.046797,0],[-72.697589,-8.046669,0],[-72.698057,-8.047594,0],[-72.698948,-8.047315,0],[-72.699941,-8.046912,0],[-72.700632,-8.046682,0],[-72.70056,-8.04625,0],[-72.700915,-8.046721,0],[-72.701455,-8.047153,0],[-72.702218,-8.046728,0],[-72.702546,-8.045634,0],[-72.702092,-8.044486,0],[-72.702419,-8.044349,0],[-72.703199,-8.044743,0],[-72.703803,-8.044743,0],[-72.704303,-8.044515,0],[-72.704631,-8.044118,0],[-72.70495,-8.043144,0],[-72.705105,-8.042064,0],[-72.705818,-8.042037,0],[-72.706083,-8.041556,0],[-72.706855,-8.042049,0],[-72.707738,-8.042429,0],[-72.708491,-8.042396,0],[-72.709129,-8.041925,0],[-72.709067,-8.041479,0],[-72.709562,-8.041272,0],[-72.709651,-8.04056,0],[-72.710092,-8.040244,0],[-72.710412,-8.039912,0],[-72.710744,-8.040159,0],[-72.710993,-8.040742,0],[-72.711628,-8.04077,0],[-72.712639,-8.040135,0],[-72.713746,-8.040291,0],[-72.713364,-8.041121,0],[-72.713631,-8.041902,0],[-72.714355,-8.042079,0],[-72.714942,-8.04206,0],[-72.715198,-8.042519,0],[-72.715922,-8.042335,0],[-72.716067,-8.04171,0],[-72.716502,-8.041451,0],[-72.717031,-8.04159,0],[-72.717702,-8.0411,0],[-72.718238,-8.040868,0],[-72.719331,-8.040903,0],[-72.720373,-8.040792,0],[-72.720691,-8.040152,0],[-72.721224,-8.040019,0],[-72.721599,-8.040394,0],[-72.722508,-8.040596,0],[-72.723147,-8.039836,0],[-72.723559,-8.038936,0],[-72.724039,-8.038261,0],[-72.724058,-8.037641,0],[-72.724791,-8.037311,0],[-72.725455,-8.036935,0],[-72.726016,-8.036141,0],[-72.726563,-8.035234,0],[-72.727019,-8.034339,0],[-72.726869,-8.033626,0],[-72.726779,-8.032888,0],[-72.726181,-8.032419,0],[-72.725317,-8.032418,0],[-72.725062,-8.033367,0],[-72.724759,-8.033769,0],[-72.723956,-8.033636,0],[-72.72332,-8.032939,0],[-72.723724,-8.031807,0],[-72.723707,-8.031268,0],[-72.723991,-8.030921,0],[-72.724654,-8.03082,0],[-72.725635,-8.030876,0],[-72.726531,-8.031003,0],[-72.726758,-8.031794,0],[-72.727258,-8.032292,0],[-72.727729,-8.032372,0],[-72.728304,-8.031947,0],[-72.728134,-8.030927,0],[-72.728498,-8.029843,0],[-72.728375,-8.028849,0],[-72.727551,-8.028279,0],[-72.727985,-8.027261,0],[-72.72847,-8.026509,0],[-72.728697,-8.025632,0],[-72.729569,-8.025357,0],[-72.730224,-8.025061,0],[-72.730449,-8.024181,0],[-72.729977,-8.023235,0],[-72.729418,-8.022534,0],[-72.729761,-8.022014,0],[-72.730566,-8.022585,0],[-72.731593,-8.023167,0],[-72.731794,-8.02412,0],[-72.731978,-8.024788,0],[-72.732569,-8.025053,0],[-72.733396,-8.024984,0],[-72.733974,-8.024375,0],[-72.734055,-8.023191,0],[-72.734018,-8.022526,0],[-72.734428,-8.022042,0],[-72.734988,-8.022302,0],[-72.735662,-8.021897,0],[-72.735939,-8.02114,0],[-72.735531,-8.020186,0],[-72.736342,-8.020461,0],[-72.736883,-8.021317,0],[-72.737173,-8.022208,0],[-72.737889,-8.023246,0],[-72.738454,-8.023374,0],[-72.739283,-8.023145,0],[-72.739226,-8.022282,0],[-72.739214,-8.021362,0],[-72.739376,-8.020603,0],[-72.738789,-8.020096,0],[-72.738205,-8.019338,0],[-72.738367,-8.018946,0],[-72.738909,-8.01872,0],[-72.74004,-8.019029,0],[-72.741107,-8.020096,0],[-72.741862,-8.020778,0],[-72.742627,-8.021387,0],[-72.741331,-8.022196,0],[-72.740543,-8.022729,0],[-72.739928,-8.023885,0],[-72.740322,-8.02507,0],[-72.741592,-8.025987,0],[-72.742963,-8.026495,0],[-72.74428,-8.026441,0],[-72.744784,-8.025976,0],[-72.744936,-8.025345,0],[-72.744861,-8.024548,0],[-72.745069,-8.02317,0],[-72.745304,-8.021719,0],[-72.745471,-8.020536,0],[-72.745597,-8.01978,0],[-72.746271,-8.019384,0],[-72.748871,-8.019202,0],[-72.751591,-8.019352,0],[-72.753487,-8.019239,0],[-72.755604,-8.019456,0],[-72.756706,-8.020108,0],[-72.757069,-8.020948,0],[-72.756945,-8.02177,0],[-72.756312,-8.022981,0],[-72.755007,-8.024662,0],[-72.753363,-8.026685,0],[-72.751862,-8.029077,0],[-72.751251,-8.030536,0],[-72.749476,-8.032896,0],[-72.748674,-8.034857,0],[-72.747802,-8.036172,0],[-72.745966,-8.038254,0],[-72.744843,-8.040213,0],[-72.74377,-8.041316,0],[-72.743015,-8.042914,0],[-72.742266,-8.044904,0],[-72.742984,-8.046468,0],[-72.743981,-8.047232,0],[-72.745463,-8.04713,0],[-72.746405,-8.046325,0],[-72.747566,-8.045464,0],[-72.749065,-8.044161,0],[-72.750554,-8.043536,0],[-72.752274,-8.044097,0]]]]},"properties":{"description":"<html xmlns:fo=\"http://www.w3.org/1999/XSL/Format\" xmlns:msxsl=\"urn:schemas-microsoft-com:xslt\">\n\n<head>\n\n<META http-equiv=\"Content-Type\" content=\"text/html\">\n\n</head>\n\n<body style=\"margin:0px 0px 0px 0px;overflow:auto;background:#FFFFFF;\">\n\n<table style=\"font-family:Arial,Verdana,Times;font-size:12px;text-align:left;width:100;border-collapse:collapse;padding:3px 3px 3px 3px\">\n\n<tr style=\"text-align:center;font-weight:bold;background:#9CBCE2\">\n\n<td> </td>\n\n</tr>\n\n<tr>\n\n<td>\n\n<table style=\"font-family:Arial,Verdana,Times;font-size:12px;text-align:left;width:100;border-spacing:0px; padding:3px 3px 3px 3px\">\n\n<tr>\n\n<td>FID</td>\n\n<td>0</td>\n\n</tr>\n\n<tr bgcolor=\"#D4E4F3\">\n\n<td>FID_</td>\n\n<td>0</td>\n\n</tr>\n\n<tr>\n\n<td>Entity</td>\n\n<td>LWPolyline</td>\n\n</tr>\n\n<tr bgcolor=\"#D4E4F3\">\n\n<td>Layer</td>\n\n<td>0</td>\n\n</tr>\n\n<tr>\n\n<td>Color</td>\n\n<td>7</td>\n\n</tr>\n\n<tr bgcolor=\"#D4E4F3\">\n\n<td>Linetype</td>\n\n<td>CONTINUO</td>\n\n</tr>\n\n<tr>\n\n<td>Elevation</td>\n\n<td>0</td>\n\n</tr>\n\n<tr bgcolor=\"#D4E4F3\">\n\n<td>LineWt</td>\n\n<td>25</td>\n\n</tr>\n\n<tr>\n\n<td>RefName</td>\n\n<td></td>\n\n</tr>\n\n</table>\n\n</td>\n\n</tr>\n\n</table>\n\n</body>\n\n</html>"}}
]}
