{"type":"FeatureCollection", "features":[
{"type":"Feature","id":"ID_00000","geometry":{"type":"MultiPolygon","coordinates":[[[[-72.74754,-7.980464,0],[-72.747713,-7.980338999999999,0],[-72.747839,-7.980394,0],[-72.748319,-7.980604,0],[-72.74857,-7.981112,0],[-72.748721,-7.981727,0],[-72.749205,-7.982769,0],[-72.750246,-7.984601,0],[-72.750921,-7.98568,0],[-72.751633,-7.986452,0],[-72.752146,-7.987115,0],[-72.752577,-7.987931,0],[-72.752918,-7.988592,0],[-72.754604,-7.990256,0],[-72.754929,-7.990474,0],[-72.754639,-7.990590000000001,0],[-72.753948,-7.990840000000001,0],[-72.753484,-7.991217000000001,0],[-72.753046,-7.991612,0],[-72.752653,-7.992196999999999,0],[-72.752368,-7.992865,0],[-72.752056,-7.993676000000001,0],[-72.751934,-7.994289999999999,0],[-72.751939,-7.995149,0],[-72.751945,-7.99571,0],[-72.751998,-7.995927,0],[-72.75224,-7.996443,0],[-72.752756,-7.996564000000001,0],[-72.753081,-7.996755,0],[-72.753351,-7.997118,0],[-72.753803,-7.997464000000001,0],[-72.754245,-7.997828000000001,0],[-72.755059,-7.998212,0],[-72.755447,-7.998612,0],[-72.755654,-7.998821,0],[-72.75578,-7.999039,0],[-72.755834,-7.999202,0],[-72.755887,-7.999365000000001,0],[-72.755932,-7.999528,0],[-72.755967,-7.999626999999999,0],[-72.755965,-8.000025,0],[-72.755882,-8.000259,0],[-72.755881,-8.00044,0],[-72.75588,-8.000675,0],[-72.755915,-8.000874,0],[-72.755996,-8.001092,0],[-72.756176,-8.00131,0],[-72.756392,-8.001537,0],[-72.75659,-8.001809,0],[-72.756985,-8.002661,0],[-72.757182,-8.003087,0],[-72.757279,-8.003476,0],[-72.757323,-8.003865,0],[-72.757274,-8.004371,0],[-72.757173,-8.004668,0],[-72.757054,-8.004885,0],[-72.756853,-8.005128,0],[-72.756562,-8.005343,0],[-72.755908,-8.005592,0],[-72.755435,-8.005771,0],[-72.754099,-8.006252,0],[-72.753536,-8.006493,0],[-72.753045,-8.006707,0],[-72.752244,-8.007209,0],[-72.751435,-8.007692,0],[-72.750041,-8.008824,0],[-72.748692,-8.010009,0],[-72.747663,-8.010953,0],[-72.746952,-8.011645,0],[-72.746558,-8.01233,0],[-72.746046,-8.013077,0],[-72.745479,-8.013969,0],[-72.744965,-8.015087,0],[-72.744763,-8.015492,0],[-72.744469,-8.016151,0],[-72.74435,-8.016439,0],[-72.7442,-8.017342,0],[-72.744092,-8.018869,0],[-72.744016,-8.019402,0],[-72.744039,-8.020125,0],[-72.744108,-8.020813,0],[-72.744194,-8.021636,0],[-72.744264,-8.022052,0],[-72.744388,-8.022586,0],[-72.744604,-8.022994,0],[-72.744339,-8.023309,0],[-72.744229,-8.023462,0],[-72.744129,-8.023669,0],[-72.744055,-8.023858,0],[-72.744045,-8.024048,0],[-72.744071,-8.024193,0],[-72.744125,-8.024347,0],[-72.744197,-8.024492,0],[-72.74425,-8.0247,0],[-72.744084,-8.025124,0],[-72.743993,-8.025268,0],[-72.743865,-8.025421,0],[-72.743711,-8.025475,0],[-72.743303,-8.0254,0],[-72.743122,-8.025354,0],[-72.742144,-8.024987,0],[-72.741148,-8.024792,0],[-72.740777,-8.024699,0],[-72.740515,-8.024381,0],[-72.74048,-8.0242,0],[-72.740481,-8.02411,0],[-72.740501,-8.023812,0],[-72.740547,-8.023577,0],[-72.740676,-8.023261,0],[-72.740804,-8.023045,0],[-72.741196,-8.022749,0],[-72.741622,-8.022625,0],[-72.741976,-8.022591,0],[-72.742303,-8.022592,0],[-72.742692,-8.022631,0],[-72.742937,-8.022614,0],[-72.743137,-8.022552,0],[-72.743302,-8.022354,0],[-72.743385,-8.02211,0],[-72.743386,-8.021821,0],[-72.742981,-8.021231,0],[-72.741746,-8.019896,0],[-72.740845,-8.018933,0],[-72.740222,-8.018468,0],[-72.739552,-8.018185,0],[-72.739036,-8.018055,0],[-72.738447,-8.01807,0],[-72.738001,-8.018212,0],[-72.737719,-8.018373,0],[-72.737537,-8.018616,0],[-72.737463,-8.018878,0],[-72.737497,-8.019168,0],[-72.737659,-8.019412,0],[-72.737831,-8.019576,0],[-72.738101,-8.019822,0],[-72.738345,-8.020094,0],[-72.738507,-8.020267,0],[-72.738633,-8.020521,0],[-72.738749,-8.020801,0],[-72.738802,-8.021091,0],[-72.738763,-8.021443,0],[-72.738689,-8.021831,0],[-72.738643,-8.021976,0],[-72.738569,-8.022147,0],[-72.738441,-8.022273,0],[-72.73826,-8.02238,0],[-72.738069,-8.022416,0],[-72.737852,-8.02236,0],[-72.737662,-8.02216,0],[-72.737446,-8.021879,0],[-72.737134,-8.020937,0],[-72.736811,-8.020348,0],[-72.736712,-8.020194,0],[-72.735844,-8.019674,0],[-72.735075,-8.019362,0],[-72.73483,-8.019343,0],[-72.734649,-8.019378,0],[-72.734458,-8.019539,0],[-72.734384,-8.019738,0],[-72.734402,-8.019819,0],[-72.734537,-8.020001,0],[-72.734645,-8.020128,0],[-72.734789,-8.020301,0],[-72.73486,-8.02059,0],[-72.734822,-8.020834,0],[-72.734749,-8.02096,0],[-72.734585,-8.02105,0],[-72.734359,-8.021048,0],[-72.734086,-8.021047,0],[-72.733787,-8.021081,0],[-72.733551,-8.021134,0],[-72.733287,-8.021305,0],[-72.733123,-8.02143,0],[-72.733022,-8.02162,0],[-72.733084,-8.021963,0],[-72.7331,-8.022298,0],[-72.73308,-8.02265,0],[-72.732996,-8.023111,0],[-72.732886,-8.023309,0],[-72.73274,-8.02348,0],[-72.732531,-8.023623,0],[-72.732331,-8.023677,0],[-72.73215,-8.023603,0],[-72.731943,-8.023358,0],[-72.731269,-8.022161,0],[-72.730864,-8.021698,0],[-72.730584,-8.021398,0],[-72.730232,-8.021234,0],[-72.729996,-8.02116,0],[-72.729498,-8.021121,0],[-72.729143,-8.021228,0],[-72.728734,-8.021442,0],[-72.728569,-8.021776,0],[-72.728532,-8.021992,0],[-72.728584,-8.022291,0],[-72.728882,-8.022663,0],[-72.72917,-8.023017,0],[-72.729332,-8.023271,0],[-72.72943,-8.023516,0],[-72.72941,-8.023805,0],[-72.729327,-8.024012,0],[-72.729109,-8.024156,0],[-72.728873,-8.024191,0],[-72.728465,-8.02417,0],[-72.728067,-8.024069,0],[-72.727457,-8.024454,0],[-72.727382,-8.024797,0],[-72.727532,-8.025566,0],[-72.727531,-8.025892,0],[-72.727329,-8.026216,0],[-72.726972,-8.026783,0],[-72.726743,-8.027333,0],[-72.726741,-8.027686,0],[-72.726857,-8.028066,0],[-72.72737,-8.02862,0],[-72.727559,-8.028875,0],[-72.727611,-8.029291,0],[-72.727643,-8.030077,0],[-72.727584,-8.030881,0],[-72.727464,-8.03126,0],[-72.727218,-8.031512,0],[-72.72691,-8.031528,0],[-72.726684,-8.03141,0],[-72.726395,-8.031101,0],[-72.726082,-8.030295,0],[-72.725585,-8.030066,0],[-72.72515,-8.029973,0],[-72.724126,-8.02994,0],[-72.723499,-8.030054,0],[-72.723208,-8.030324,0],[-72.723096,-8.030838,0],[-72.723094,-8.0311,0],[-72.722984,-8.031389,0],[-72.722553,-8.032227,0],[-72.722533,-8.032535,0],[-72.721888,-8.032775,0],[-72.721526,-8.032737,0],[-72.721172,-8.032635,0],[-72.720332,-8.032188,0],[-72.719482,-8.031668,0],[-72.718912,-8.03152,0],[-72.717777,-8.031722,0],[-72.717358,-8.032027,0],[-72.716983,-8.032558,0],[-72.716227,-8.033241,0],[-72.715517,-8.033716,0],[-72.714626,-8.034172,0],[-72.713844,-8.03443,0],[-72.713182,-8.034444,0],[-72.712947,-8.034388,0],[-72.712639,-8.034387,0],[-72.712257,-8.034502,0],[-72.71202,-8.034654,0],[-72.711486,-8.034588,0],[-72.710461,-8.034528,0],[-72.709173,-8.034575,0],[-72.707947,-8.034975,0],[-72.707303,-8.035062,0],[-72.706495,-8.035211,0],[-72.704514,-8.035914,0],[-72.703841,-8.036254,0],[-72.702651,-8.036609,0],[-72.702234,-8.03657,0],[-72.700676,-8.036272,0],[-72.699814,-8.036286,0],[-72.698234,-8.036756,0],[-72.697698,-8.03687,0],[-72.697082,-8.036867,0],[-72.696376,-8.036519,0],[-72.696179,-8.036166,0],[-72.696009,-8.035686,0],[-72.695787,-8.034808,0],[-72.695509,-8.034309,0],[-72.695167,-8.033964,0],[-72.694233,-8.033886,0],[-72.692633,-8.032919,0],[-72.691709,-8.032796,0],[-72.690197,-8.032445,0],[-72.689228,-8.03215,0],[-72.686386,-8.03114,0],[-72.685509,-8.030719,0],[-72.684788,-8.030028,0],[-72.684059,-8.028948,0],[-72.683469,-8.027535,0],[-72.683067,-8.026403,0],[-72.682781,-8.024087,0],[-72.682322,-8.023561,0],[-72.681491,-8.022905,0],[-72.680878,-8.022369,0],[-72.680154,-8.022039,0],[-72.678812,-8.022013,0],[-72.677413,-8.022448,0],[-72.676205,-8.022921,0],[-72.67563,-8.023469,0],[-72.675337,-8.024027,0],[-72.67522,-8.025346,0],[-72.674955,-8.025761,0],[-72.674508,-8.026328,0],[-72.674439,-8.027177,0],[-72.674636,-8.029184,0],[-72.675158,-8.031465,0],[-72.675337,-8.033527,0],[-72.675232,-8.034466,0],[-72.674702,-8.035132,0],[-72.674302,-8.035301,0],[-72.673376,-8.035549,0],[-72.672549,-8.035942,0],[-72.671974,-8.036526,0],[-72.671507,-8.037238,0],[-72.670607,-8.037667,0],[-72.669727,-8.037797,0],[-72.668838,-8.037855,0],[-72.667647,-8.038319,0],[-72.666986,-8.038279,0],[-72.666624,-8.038123,0],[-72.666128,-8.037686,0],[-72.665548,-8.037584,0],[-72.664215,-8.037594,0],[-72.663062,-8.037705,0],[-72.660385,-8.038169,0],[-72.65885,-8.038504,0],[-72.65778,-8.038479,0],[-72.657292,-8.038287,0],[-72.656481,-8.039014,0],[-72.650557,-8.044241,0],[-72.649745,-8.044959,0],[-72.649432,-8.045997,0],[-72.649194,-8.046787,0],[-72.648807,-8.048072,0],[-72.648182,-8.050147,0],[-72.647868,-8.051185,0],[-72.648352,-8.052254,0],[-72.648893,-8.052772,0],[-72.650576,-8.053415,0],[-72.651917,-8.053639,0],[-72.652693,-8.054349,0],[-72.652783,-8.054458,0],[-72.65304,-8.055444,0],[-72.653137,-8.055888,0],[-72.653161,-8.056548,0],[-72.653221,-8.057081,0],[-72.652998,-8.057993,0],[-72.652909,-8.059212,0],[-72.653268,-8.059901,0],[-72.65332,-8.060399,0],[-72.653623,-8.061223,0],[-72.653993,-8.061659,0],[-72.654336,-8.061896,0],[-72.654617,-8.061952,0],[-72.654923,-8.062206,0],[-72.655021,-8.062523,0],[-72.655129,-8.062723,0],[-72.655328,-8.062896,0],[-72.655531,-8.063005,0],[-72.655889,-8.063007,0],[-72.656162,-8.062919,0],[-72.656462,-8.062685,0],[-72.656509,-8.062423,0],[-72.656793,-8.062018,0],[-72.657129,-8.061894,0],[-72.657627,-8.061942,0],[-72.658037,-8.061727,0],[-72.658346,-8.06163,0],[-72.658862,-8.061669,0],[-72.659375,-8.062377,0],[-72.659446,-8.062702,0],[-72.659635,-8.062884,0],[-72.660161,-8.062878,0],[-72.66016,-8.063131,0],[-72.660382,-8.063937,0],[-72.660374,-8.06532,0],[-72.660145,-8.065698,0],[-72.659836,-8.065769,0],[-72.659664,-8.065749,0],[-72.659275,-8.065657,0],[-72.658859,-8.065474,0],[-72.658242,-8.065488,0],[-72.657815,-8.065585,0],[-72.657133,-8.065925,0],[-72.656741,-8.066194,0],[-72.656464,-8.067087,0],[-72.656264,-8.067285,0],[-72.655918,-8.067445,0],[-72.655481,-8.067768,0],[-72.655325,-8.06802,0],[-72.655088,-8.068227,0],[-72.654825,-8.068307,0],[-72.654453,-8.068305,0],[-72.653999,-8.06841,0],[-72.65378,-8.068626,0],[-72.653733,-8.069005,0],[-72.653677,-8.069267,0],[-72.653413,-8.069437,0],[-72.653222,-8.069436,0],[-72.653023,-8.069381,0],[-72.652642,-8.069343,0],[-72.652142,-8.069665,0],[-72.650995,-8.0703,0],[-72.650493,-8.070876,0],[-72.650302,-8.070965,0],[-72.649877,-8.070836,0],[-72.649705,-8.070682,0],[-72.649346,-8.070083,0],[-72.648929,-8.070062,0],[-72.648539,-8.070142,0],[-72.648256,-8.07042,0],[-72.648273,-8.070673,0],[-72.648099,-8.07098,0],[-72.647826,-8.071068,0],[-72.647416,-8.071319,0],[-72.647396,-8.071717,0],[-72.64742,-8.072331,0],[-72.646938,-8.072555,0],[-72.64613,-8.072649,0],[-72.645286,-8.072816,0],[-72.64464,-8.073156,0],[-72.644468,-8.073155,0],[-72.644024,-8.073071,0],[-72.643661,-8.073078,0],[-72.643452,-8.073131,0],[-72.643124,-8.073337,0],[-72.642734,-8.073398,0],[-72.642544,-8.073261,0],[-72.642002,-8.072987,0],[-72.641588,-8.072488,0],[-72.641074,-8.071969,0],[-72.640685,-8.071696,0],[-72.640459,-8.071586,0],[-72.640151,-8.071621,0],[-72.639896,-8.071773,0],[-72.639576,-8.072205,0],[-72.639492,-8.072548,0],[-72.639129,-8.072609,0],[-72.639013,-8.0724,0],[-72.638817,-8.071785,0],[-72.638837,-8.071405,0],[-72.638666,-8.071187,0],[-72.638512,-8.071168,0],[-72.638248,-8.071321,0],[-72.637994,-8.071382,0],[-72.637803,-8.071381,0],[-72.637586,-8.071335,0],[-72.637478,-8.071226,0],[-72.637399,-8.070764,0],[-72.637274,-8.070456,0],[-72.637075,-8.070247,0],[-72.636885,-8.070264,0],[-72.635118,-8.070064,0],[-72.634401,-8.07006,0],[-72.634037,-8.07032,0],[-72.63398,-8.070681,0],[-72.634188,-8.070863,0],[-72.634596,-8.070938,0],[-72.634802,-8.071355,0],[-72.634665,-8.071508,0],[-72.634438,-8.071552,0],[-72.634093,-8.071532,0],[-72.633404,-8.071564,0],[-72.632521,-8.072092,0],[-72.631951,-8.071971,0],[-72.631797,-8.07197,0],[-72.631397,-8.072085,0],[-72.631278,-8.07222,0],[-72.630933,-8.072236,0],[-72.63078,-8.072136,0],[-72.630609,-8.071945,0],[-72.630319,-8.071925,0],[-72.63001,-8.072059,0],[-72.629727,-8.072329,0],[-72.629436,-8.072454,0],[-72.629128,-8.072434,0],[-72.62892,-8.072297,0],[-72.628857,-8.072143,0],[-72.628668,-8.071916,0],[-72.628442,-8.071878,0],[-72.628232,-8.071995,0],[-72.628104,-8.072292,0],[-72.627903,-8.072454,0],[-72.627441,-8.072451,0],[-72.62736,-8.072351,0],[-72.627288,-8.072143,0],[-72.627099,-8.071889,0],[-72.626773,-8.071833,0],[-72.626272,-8.072227,0],[-72.625909,-8.072288,0],[-72.625901,-8.07209,0],[-72.625232,-8.071742,0],[-72.624307,-8.071701,0],[-72.623346,-8.071777,0],[-72.622465,-8.072052,0],[-72.621945,-8.072491,0],[-72.621826,-8.072753,0],[-72.621859,-8.073259,0],[-72.622012,-8.073468,0],[-72.622128,-8.073794,0],[-72.622144,-8.074056,0],[-72.621612,-8.075165,0],[-72.621053,-8.076219,0],[-72.620523,-8.076839,0],[-72.620068,-8.077144,0],[-72.619849,-8.077342,0],[-72.619948,-8.07755,0],[-72.620155,-8.077723,0],[-72.620672,-8.07778,0],[-72.62106,-8.078008,0],[-72.620775,-8.078639,0],[-72.620429,-8.07899,0],[-72.619855,-8.079384,0],[-72.619528,-8.079536,0],[-72.619273,-8.079742,0],[-72.619171,-8.080049,0],[-72.619176,-8.080718,0],[-72.619012,-8.080943,0],[-72.618802,-8.081059,0],[-72.618476,-8.081039,0],[-72.618268,-8.080911,0],[-72.618124,-8.080847,0],[-72.618088,-8.080793,0],[-72.617899,-8.080539,0],[-72.617339,-8.080038,0],[-72.616822,-8.080035,0],[-72.61636,-8.080096,0],[-72.616014,-8.080248,0],[-72.615803,-8.080608,0],[-72.615783,-8.080951,0],[-72.615853,-8.081413,0],[-72.615797,-8.081738,0],[-72.615705,-8.081963,0],[-72.615405,-8.082061,0],[-72.615351,-8.082051,0],[-72.615143,-8.081869,0],[-72.614729,-8.081388,0],[-72.614475,-8.081278,0],[-72.614194,-8.081276,0],[-72.614011,-8.081519,0],[-72.613974,-8.081772,0],[-72.613988,-8.08236,0],[-72.613878,-8.082612,0],[-72.613623,-8.082782,0],[-72.613179,-8.082762,0],[-72.612735,-8.082624,0],[-72.61239,-8.082721,0],[-72.612028,-8.082674,0],[-72.611672,-8.083024,0],[-72.611616,-8.083322,0],[-72.611614,-8.083629,0],[-72.611523,-8.083728,0],[-72.611323,-8.083745,0],[-72.611116,-8.083491,0],[-72.61089,-8.083336,0],[-72.610654,-8.083334,0],[-72.610391,-8.083468,0],[-72.610172,-8.083684,0],[-72.610116,-8.083928,0],[-72.610196,-8.084136,0],[-72.610368,-8.084291,0],[-72.611382,-8.08445,0],[-72.611708,-8.084606,0],[-72.611778,-8.085067,0],[-72.611514,-8.085219,0],[-72.611242,-8.085236,0],[-72.610835,-8.084989,0],[-72.610518,-8.084979,0],[-72.610163,-8.085193,0],[-72.609998,-8.085554,0],[-72.609678,-8.085932,0],[-72.609351,-8.086083,0],[-72.609169,-8.086082,0],[-72.608768,-8.086369,0],[-72.608785,-8.086577,0],[-72.609039,-8.086696,0],[-72.609437,-8.086735,0],[-72.609517,-8.087142,0],[-72.609204,-8.087809,0],[-72.609185,-8.088089,0],[-72.609599,-8.088534,0],[-72.609615,-8.088914,0],[-72.609378,-8.089129,0],[-72.609123,-8.089236,0],[-72.608841,-8.089524,0],[-72.608484,-8.090001,0],[-72.608139,-8.090134,0],[-72.607757,-8.090204,0],[-72.606932,-8.090245,0],[-72.606377,-8.090558,0],[-72.606048,-8.09089,0],[-72.605991,-8.091306,0],[-72.606117,-8.091496,0],[-72.606605,-8.091906,0],[-72.606894,-8.092115,0],[-72.606965,-8.092342,0],[-72.606963,-8.092577,0],[-72.606772,-8.092666,0],[-72.6066,-8.092665,0],[-72.606292,-8.092555,0],[-72.606139,-8.092454,0],[-72.605931,-8.092399,0],[-72.605051,-8.092376,0],[-72.604741,-8.09269,0],[-72.604767,-8.092853,0],[-72.604776,-8.092889,0],[-72.604893,-8.093025,0],[-72.605199,-8.093344,0],[-72.605597,-8.093617,0],[-72.605813,-8.093908,0],[-72.605829,-8.094287,0],[-72.605673,-8.09463,0],[-72.605289,-8.095052,0],[-72.604742,-8.095546,0],[-72.60405,-8.096021,0],[-72.60334,-8.096415,0],[-72.603202,-8.096721,0],[-72.603201,-8.097046,0],[-72.603272,-8.097255,0],[-72.603425,-8.097409,0],[-72.603606,-8.097492,0],[-72.603922,-8.097701,0],[-72.604102,-8.09791,0],[-72.604055,-8.098217,0],[-72.603881,-8.098524,0],[-72.603617,-8.098621,0],[-72.60281,-8.098617,0],[-72.602555,-8.098778,0],[-72.602327,-8.09903,0],[-72.602153,-8.099408,0],[-72.602069,-8.099778,0],[-72.601702,-8.100499,0],[-72.601529,-8.100634,0],[-72.600957,-8.100648,0],[-72.60015,-8.100743,0],[-72.599893,-8.101157,0],[-72.5997,-8.101707,0],[-72.599798,-8.10188,0],[-72.60006,-8.102134,0],[-72.600076,-8.102424,0],[-72.600021,-8.102631,0],[-72.599657,-8.102728,0],[-72.599745,-8.103181,0],[-72.599626,-8.103487,0],[-72.599434,-8.103658,0],[-72.599216,-8.103738,0],[-72.598544,-8.103852,0],[-72.598398,-8.104059,0],[-72.598414,-8.104348,0],[-72.598756,-8.104883,0],[-72.598597,-8.105605,0],[-72.598212,-8.106353,0],[-72.597747,-8.106829,0],[-72.59712,-8.106997,0],[-72.596176,-8.107064,0],[-72.595813,-8.107179,0],[-72.595675,-8.107486,0],[-72.595637,-8.107676,0],[-72.595736,-8.107938,0],[-72.596096,-8.108266,0],[-72.595959,-8.108518,0],[-72.595388,-8.108515,0],[-72.595206,-8.108568,0],[-72.594996,-8.108774,0],[-72.59484,-8.109162,0],[-72.594684,-8.109387,0],[-72.594304,-8.109231,0],[-72.594271,-8.10868,0],[-72.594119,-8.108353,0],[-72.594037,-8.108335,0],[-72.593774,-8.108369,0],[-72.59372,-8.108378,0],[-72.593446,-8.108603,0],[-72.593198,-8.109143,0],[-72.592988,-8.109422,0],[-72.59266,-8.10961,0],[-72.592215,-8.109779,0],[-72.591624,-8.109947,0],[-72.591052,-8.110197,0],[-72.590742,-8.110385,0],[-72.590295,-8.110762,0],[-72.590068,-8.110842,0],[-72.589296,-8.111009,0],[-72.588877,-8.111314,0],[-72.588722,-8.111521,0],[-72.58879,-8.112344,0],[-72.588452,-8.112613,0],[-72.58819,-8.112575,0],[-72.588091,-8.112457,0],[-72.587965,-8.112167,0],[-72.587812,-8.112076,0],[-72.58763,-8.112075,0],[-72.587467,-8.112146,0],[-72.587384,-8.11239,0],[-72.587399,-8.112815,0],[-72.587243,-8.113211,0],[-72.587122,-8.113617,0],[-72.587182,-8.114205,0],[-72.586973,-8.114339,0],[-72.586719,-8.114401,0],[-72.586456,-8.114418,0],[-72.586356,-8.114354,0],[-72.586257,-8.1142,0],[-72.586068,-8.11409,0],[-72.585859,-8.114035,0],[-72.585686,-8.114196,0],[-72.58553,-8.11453,0],[-72.585618,-8.114928,0],[-72.585607,-8.115253,0],[-72.585552,-8.115343,0],[-72.585397,-8.11546,0],[-72.585206,-8.11554,0],[-72.584943,-8.115593,0],[-72.584779,-8.115664,0],[-72.584651,-8.115817,0],[-72.584667,-8.116224,0],[-72.584781,-8.116929,0],[-72.584606,-8.117353,0],[-72.584313,-8.117812,0],[-72.583719,-8.11855,0],[-72.582434,-8.119599,0],[-72.582078,-8.120067,0],[-72.581986,-8.120266,0],[-72.582038,-8.120564,0],[-72.582101,-8.120664,0],[-72.582237,-8.120683,0],[-72.582619,-8.120459,0],[-72.582882,-8.120479,0],[-72.582962,-8.120741,0],[-72.583115,-8.120941,0],[-72.583288,-8.120942,0],[-72.583687,-8.120863,0],[-72.584068,-8.120902,0],[-72.584319,-8.121292,0],[-72.584471,-8.121772,0],[-72.584123,-8.122267,0],[-72.583851,-8.122337,0],[-72.583298,-8.122235,0],[-72.583027,-8.122025,0],[-72.582664,-8.122023,0],[-72.5823,-8.122274,0],[-72.582189,-8.122653,0],[-72.58253,-8.123233,0],[-72.582456,-8.123477,0],[-72.582246,-8.123702,0],[-72.581991,-8.123881,0],[-72.58189,-8.124088,0],[-72.581835,-8.124296,0],[-72.581887,-8.124621,0],[-72.582137,-8.125328,0],[-72.581717,-8.12575,0],[-72.581409,-8.125748,0],[-72.58131,-8.125558,0],[-72.581257,-8.12534,0],[-72.581022,-8.125131,0],[-72.580186,-8.12547,0],[-72.580076,-8.125704,0],[-72.579784,-8.125919,0],[-72.579665,-8.126162,0],[-72.579573,-8.126433,0],[-72.579298,-8.126793,0],[-72.579008,-8.126845,0],[-72.578626,-8.127033,0],[-72.578416,-8.127231,0],[-72.578315,-8.127384,0],[-72.578203,-8.127916,0],[-72.578481,-8.128415,0],[-72.579229,-8.129359,0],[-72.579036,-8.129756,0],[-72.578881,-8.129809,0],[-72.578664,-8.129808,0],[-72.578394,-8.129427,0],[-72.577779,-8.129025,0],[-72.577407,-8.129059,0],[-72.576588,-8.129578,0],[-72.576369,-8.129785,0],[-72.575744,-8.129664,0],[-72.575389,-8.129879,0],[-72.57526,-8.130239,0],[-72.575312,-8.130547,0],[-72.575465,-8.130756,0],[-72.575673,-8.130856,0],[-72.576054,-8.130859,0],[-72.576207,-8.131049,0],[-72.57631,-8.132116,0],[-72.576063,-8.132476,0],[-72.575997,-8.132783,0],[-72.576077,-8.1331,0],[-72.576329,-8.133409,0],[-72.5765,-8.133699,0],[-72.576498,-8.134006,0],[-72.57636,-8.134232,0],[-72.575995,-8.134618,0],[-72.575895,-8.134672,0],[-72.574952,-8.13472,0],[-72.574723,-8.13499,0],[-72.574531,-8.135296,0],[-72.574491,-8.135847,0],[-72.574317,-8.136171,0],[-72.574007,-8.136531,0],[-72.573715,-8.136764,0],[-72.573332,-8.137196,0],[-72.573284,-8.13753,0],[-72.573482,-8.137893,0],[-72.573745,-8.137876,0],[-72.574299,-8.137663,0],[-72.574518,-8.13751,0],[-72.574951,-8.137784,0],[-72.574758,-8.138226,0],[-72.574494,-8.138486,0],[-72.573665,-8.139114,0],[-72.573355,-8.13932,0],[-72.573081,-8.13968,0],[-72.573124,-8.139969,0],[-72.573404,-8.140179,0],[-72.573767,-8.140226,0],[-72.574211,-8.140247,0],[-72.574537,-8.140339,0],[-72.574824,-8.140802,0],[-72.574859,-8.141173,0],[-72.574703,-8.141434,0],[-72.574429,-8.141685,0],[-72.573794,-8.141808,0],[-72.573248,-8.142021,0],[-72.572611,-8.142361,0],[-72.571984,-8.142565,0],[-72.57162,-8.142834,0],[-72.571617,-8.143286,0],[-72.571723,-8.143711,0],[-72.571631,-8.143919,0],[-72.571532,-8.143882,0],[-72.571323,-8.143881,0],[-72.570999,-8.143454,0],[-72.570745,-8.143434,0],[-72.570482,-8.14355,0],[-72.570089,-8.144063,0],[-72.570068,-8.144524,0],[-72.570094,-8.144732,0],[-72.570573,-8.144907,0],[-72.571095,-8.145542,0],[-72.570885,-8.14583,0],[-72.570431,-8.145864,0],[-72.569879,-8.145743,0],[-72.569053,-8.145819,0],[-72.56867,-8.146142,0],[-72.568668,-8.146432,0],[-72.568821,-8.146713,0],[-72.568956,-8.146813,0],[-72.569082,-8.146967,0],[-72.56939,-8.147078,0],[-72.569542,-8.147386,0],[-72.569587,-8.147576,0],[-72.569449,-8.147828,0],[-72.56933,-8.147981,0],[-72.569084,-8.148151,0],[-72.568865,-8.148403,0],[-72.568818,-8.148638,0],[-72.568809,-8.148701,0],[-72.568943,-8.148955,0],[-72.569224,-8.149047,0],[-72.569515,-8.148994,0],[-72.569634,-8.148823,0],[-72.569825,-8.148635,0],[-72.57008,-8.148482,0],[-72.570297,-8.148637,0],[-72.570466,-8.149154,0],[-72.570615,-8.149959,0],[-72.571066,-8.150341,0],[-72.571697,-8.151095,0],[-72.571605,-8.151302,0],[-72.571432,-8.151419,0],[-72.571141,-8.151453,0],[-72.570869,-8.151524,0],[-72.570813,-8.151686,0],[-72.571109,-8.152257,0],[-72.570945,-8.152428,0],[-72.570191,-8.152695,0],[-72.569981,-8.152883,0],[-72.569997,-8.153145,0],[-72.570404,-8.153455,0],[-72.570712,-8.153457,0],[-72.57102,-8.153522,0],[-72.571036,-8.153866,0],[-72.570881,-8.153982,0],[-72.570318,-8.154141,0],[-72.570163,-8.154222,0],[-72.569664,-8.154219,0],[-72.569383,-8.154271,0],[-72.569127,-8.154631,0],[-72.569179,-8.154957,0],[-72.56983,-8.155313,0],[-72.570137,-8.155559,0],[-72.569936,-8.155847,0],[-72.569552,-8.156261,0],[-72.569487,-8.156513,0],[-72.569908,-8.157393,0],[-72.570152,-8.157611,0],[-72.57046,-8.157667,0],[-72.570995,-8.157652,0],[-72.571057,-8.157933,0],[-72.570992,-8.158113,0],[-72.570626,-8.158752,0],[-72.570651,-8.159006,0],[-72.570893,-8.159468,0],[-72.57102,-8.159586,0],[-72.571127,-8.159759,0],[-72.571162,-8.160012,0],[-72.571116,-8.160165,0],[-72.570679,-8.160506,0],[-72.570677,-8.160732,0],[-72.57073,-8.161022,0],[-72.570983,-8.161177,0],[-72.571399,-8.161351,0],[-72.571994,-8.161951,0],[-72.572109,-8.162503,0],[-72.571898,-8.162863,0],[-72.571688,-8.163034,0],[-72.571342,-8.163239,0],[-72.571241,-8.163492,0],[-72.571475,-8.163801,0],[-72.571738,-8.163757,0],[-72.571928,-8.163803,0],[-72.57206,-8.164563,0],[-72.572231,-8.164817,0],[-72.572539,-8.164891,0],[-72.572755,-8.165074,0],[-72.572944,-8.165301,0],[-72.572997,-8.16559,0],[-72.573204,-8.165817,0],[-72.573737,-8.166182,0],[-72.573735,-8.166625,0],[-72.57368,-8.166715,0],[-72.573435,-8.166713,0],[-72.573236,-8.16664,0],[-72.573109,-8.166504,0],[-72.57301,-8.166449,0],[-72.572783,-8.166447,0],[-72.572583,-8.166555,0],[-72.572537,-8.166726,0],[-72.572626,-8.16698,0],[-72.572842,-8.167189,0],[-72.572914,-8.167361,0],[-72.572875,-8.167804,0],[-72.572891,-8.168084,0],[-72.572944,-8.168319,0],[-72.573458,-8.168883,0],[-72.573738,-8.169038,0],[-72.5733,-8.169469,0],[-72.572801,-8.169575,0],[-72.572636,-8.169754,0],[-72.572608,-8.16998,0],[-72.572633,-8.170233,0],[-72.572829,-8.170804,0],[-72.57278,-8.171436,0],[-72.572459,-8.171986,0],[-72.571949,-8.172362,0],[-72.571631,-8.172496,0],[-72.571621,-8.172667,0],[-72.571774,-8.172867,0],[-72.571835,-8.173211,0],[-72.571771,-8.173346,0],[-72.571224,-8.17384,0],[-72.571412,-8.174257,0],[-72.571683,-8.174358,0],[-72.5718,-8.174566,0],[-72.57177,-8.175045,0],[-72.572117,-8.176078,0],[-72.572134,-8.176331,0],[-72.572087,-8.176538,0],[-72.571415,-8.176742,0],[-72.571132,-8.176957,0],[-72.571056,-8.177508,0],[-72.570789,-8.178311,0],[-72.570258,-8.178995,0],[-72.569648,-8.179488,0],[-72.569283,-8.179694,0],[-72.569178,-8.180687,0],[-72.568768,-8.180865,0],[-72.568405,-8.181044,0],[-72.567461,-8.18112,0],[-72.565192,-8.181242,0],[-72.564365,-8.181535,0],[-72.563964,-8.181939,0],[-72.563925,-8.182382,0],[-72.564149,-8.182708,0],[-72.564646,-8.183127,0],[-72.564725,-8.183525,0],[-72.564604,-8.183949,0],[-72.564449,-8.184138,0],[-72.563469,-8.184132,0],[-72.563088,-8.184284,0],[-72.562832,-8.184589,0],[-72.562694,-8.184914,0],[-72.562638,-8.185203,0],[-72.562921,-8.186334,0],[-72.562907,-8.187129,0],[-72.562923,-8.187536,0],[-72.562397,-8.187506,0],[-72.562234,-8.18736,0],[-72.562136,-8.187052,0],[-72.562138,-8.186835,0],[-72.562351,-8.186078,0],[-72.561952,-8.185994,0],[-72.561643,-8.186146,0],[-72.56147,-8.186316,0],[-72.561331,-8.186704,0],[-72.561256,-8.187083,0],[-72.560963,-8.187678,0],[-72.560707,-8.187902,0],[-72.56038,-8.188018,0],[-72.560172,-8.187917,0],[-72.560118,-8.187844,0],[-72.560065,-8.187663,0],[-72.560084,-8.187401,0],[-72.560023,-8.186994,0],[-72.559715,-8.186956,0],[-72.559505,-8.18728,0],[-72.559466,-8.187624,0],[-72.559364,-8.187948,0],[-72.559136,-8.188254,0],[-72.558773,-8.188216,0],[-72.558566,-8.187962,0],[-72.558523,-8.1876,0],[-72.55868,-8.187086,0],[-72.558738,-8.186607,0],[-72.558548,-8.186398,0],[-72.558394,-8.186451,0],[-72.557975,-8.186801,0],[-72.557619,-8.187061,0],[-72.557301,-8.187132,0],[-72.557102,-8.187058,0],[-72.556895,-8.186768,0],[-72.556825,-8.18646,0],[-72.55669,-8.186179,0],[-72.556383,-8.185978,0],[-72.556175,-8.185959,0],[-72.555555,-8.18638,0],[-72.555327,-8.186686,0],[-72.555225,-8.186992,0],[-72.555222,-8.187408,0],[-72.55551,-8.187771,0],[-72.555772,-8.188026,0],[-72.556042,-8.188425,0],[-72.556139,-8.188787,0],[-72.556092,-8.189022,0],[-72.555938,-8.189021,0],[-72.555749,-8.188848,0],[-72.555269,-8.188674,0],[-72.55497,-8.18869,0],[-72.554451,-8.188976,0],[-72.554422,-8.189301,0],[-72.554464,-8.189799,0],[-72.554589,-8.190179,0],[-72.554378,-8.190467,0],[-72.554133,-8.190538,0],[-72.553961,-8.190401,0],[-72.553617,-8.190363,0],[-72.553154,-8.190459,0],[-72.552844,-8.190683,0],[-72.552435,-8.190762,0],[-72.551585,-8.191914,0],[-72.551049,-8.191956,0],[-72.55074,-8.192044,0],[-72.550476,-8.192314,0],[-72.550337,-8.192674,0],[-72.550028,-8.192862,0],[-72.549756,-8.192888,0],[-72.547448,-8.193425,0],[-72.546057,-8.193914,0],[-72.545883,-8.19422,0],[-72.545842,-8.195006,0],[-72.545704,-8.19533,0],[-72.545522,-8.195519,0],[-72.545286,-8.195509,0],[-72.544969,-8.195335,0],[-72.544772,-8.195018,0],[-72.544465,-8.194817,0],[-72.544138,-8.194797,0],[-72.543792,-8.194966,0],[-72.543445,-8.195461,0],[-72.543488,-8.195769,0],[-72.543749,-8.196078,0],[-72.543975,-8.196287,0],[-72.544017,-8.196766,0],[-72.54388,-8.197018,0],[-72.543345,-8.196997,0],[-72.542999,-8.19714,0],[-72.542834,-8.197473,0],[-72.542676,-8.198077,0],[-72.54271,-8.198349,0],[-72.542962,-8.198658,0],[-72.543225,-8.198795,0],[-72.543479,-8.198769,0],[-72.543844,-8.198301,0],[-72.544154,-8.198186,0],[-72.544416,-8.198242,0],[-72.544533,-8.19845,0],[-72.544456,-8.199082,0],[-72.544509,-8.199336,0],[-72.544662,-8.199581,0],[-72.54487,-8.199754,0],[-72.545141,-8.199891,0],[-72.546075,-8.199951,0],[-72.546282,-8.200169,0],[-72.546344,-8.200459,0],[-72.546288,-8.20072,0],[-72.546131,-8.201099,0],[-72.545931,-8.201251,0],[-72.545704,-8.20125,0],[-72.545296,-8.201293,0],[-72.54485,-8.201444,0],[-72.544658,-8.201705,0],[-72.544657,-8.201921,0],[-72.544935,-8.202438,0],[-72.544941,-8.20289,0],[-72.544785,-8.203215,0],[-72.544612,-8.203259,0],[-72.544458,-8.203258,0],[-72.544114,-8.203174,0],[-72.543652,-8.203099,0],[-72.543226,-8.203079,0],[-72.542563,-8.203201,0],[-72.542042,-8.203767,0],[-72.541384,-8.204586,0],[-72.541066,-8.204674,0],[-72.540223,-8.204633,0],[-72.539549,-8.205071,0],[-72.539066,-8.205448,0],[-72.538365,-8.205733,0],[-72.537875,-8.205884,0],[-72.537519,-8.206089,0],[-72.537173,-8.206358,0],[-72.536844,-8.206826,0],[-72.536687,-8.207268,0],[-72.53652,-8.2079,0],[-72.536418,-8.208143,0],[-72.536125,-8.20862,0],[-72.535604,-8.209313,0],[-72.535357,-8.209555,0],[-72.534548,-8.209822,0],[-72.533882,-8.209085,0],[-72.533613,-8.208533,0],[-72.533151,-8.208412,0],[-72.532851,-8.208492,0],[-72.532596,-8.208716,0],[-72.532385,-8.209058,0],[-72.532381,-8.20979,0],[-72.532223,-8.210259,0],[-72.532003,-8.210719,0],[-72.531648,-8.21097,0],[-72.530561,-8.210638,0],[-72.529653,-8.210768,0],[-72.529198,-8.21109,0],[-72.528858,-8.211712,0],[-72.528538,-8.213553,0],[-72.528376,-8.214827,0],[-72.528102,-8.215177,0],[-72.527856,-8.215348,0],[-72.527529,-8.2154,0],[-72.526302,-8.215808,0],[-72.52496,-8.2158,0],[-72.52456,-8.215897,0],[-72.523768,-8.216253,0],[-72.523404,-8.216486,0],[-72.522987,-8.216501,0],[-72.522597,-8.216463,0],[-72.521964,-8.216134,0],[-72.521511,-8.216068,0],[-72.52122,-8.216129,0],[-72.520373,-8.216639,0],[-72.520118,-8.216927,0],[-72.519817,-8.217205,0],[-72.519463,-8.217248,0],[-72.519046,-8.21711,0],[-72.518468,-8.2167,0],[-72.518042,-8.216661,0],[-72.517539,-8.217344,0],[-72.517591,-8.217724,0],[-72.518339,-8.218533,0],[-72.518428,-8.218805,0],[-72.518408,-8.219148,0],[-72.518197,-8.219373,0],[-72.517951,-8.219552,0],[-72.517579,-8.219676,0],[-72.517178,-8.219909,0],[-72.516849,-8.220341,0],[-72.5167,-8.220954,0],[-72.516544,-8.221206,0],[-72.51647,-8.221468,0],[-72.516505,-8.221658,0],[-72.516676,-8.221858,0],[-72.516619,-8.222291,0],[-72.516443,-8.222832,0],[-72.516442,-8.223004,0],[-72.516666,-8.223457,0],[-72.517082,-8.223677,0],[-72.517371,-8.223941,0],[-72.517578,-8.224249,0],[-72.517575,-8.22471,0],[-72.517601,-8.224918,0],[-72.5175,-8.225107,0],[-72.51729,-8.225223,0],[-72.516865,-8.225121,0],[-72.516601,-8.225273,0],[-72.516481,-8.22558,0],[-72.516551,-8.225924,0],[-72.51655,-8.226123,0],[-72.51634,-8.226383,0],[-72.516094,-8.226535,0],[-72.516029,-8.226761,0],[-72.516472,-8.227017,0],[-72.51657,-8.227325,0],[-72.516413,-8.227785,0],[-72.516411,-8.227992,0],[-72.516519,-8.228183,0],[-72.517553,-8.228225,0],[-72.517905,-8.228445,0],[-72.51813,-8.22869,0],[-72.518202,-8.228916,0],[-72.518128,-8.229051,0],[-72.51818,-8.229413,0],[-72.518586,-8.229895,0],[-72.518738,-8.230203,0],[-72.518691,-8.230438,0],[-72.518428,-8.23049,0],[-72.518217,-8.23076,0],[-72.518268,-8.231402,0],[-72.518374,-8.231791,0],[-72.518256,-8.231899,0],[-72.5181,-8.232097,0],[-72.518099,-8.232305,0],[-72.518196,-8.232649,0],[-72.518213,-8.23292,0],[-72.518112,-8.233028,0],[-72.517903,-8.233126,0],[-72.51744,-8.233258,0],[-72.51723,-8.233384,0],[-72.517112,-8.233519,0],[-72.517011,-8.233717,0],[-72.517036,-8.233943,0],[-72.517108,-8.234151,0],[-72.517314,-8.234442,0],[-72.517835,-8.235385,0],[-72.518287,-8.236987,0],[-72.518105,-8.238649,0],[-72.517974,-8.239263,0],[-72.51806,-8.239959,0],[-72.518257,-8.24043,0],[-72.518273,-8.240701,0],[-72.518058,-8.241712,0],[-72.518111,-8.241984,0],[-72.518607,-8.242484,0],[-72.518669,-8.242674,0],[-72.518423,-8.242916,0],[-72.518462,-8.243838,0],[-72.518306,-8.244145,0],[-72.517932,-8.24445,0],[-72.517687,-8.244602,0],[-72.517567,-8.244863,0],[-72.517511,-8.24517,0],[-72.517254,-8.24553,0],[-72.516281,-8.246003,0],[-72.516125,-8.246291,0],[-72.516096,-8.246562,0],[-72.516157,-8.24687,0],[-72.516916,-8.247371,0],[-72.517586,-8.247692,0],[-72.51822,-8.247741,0],[-72.518409,-8.247968,0],[-72.518444,-8.248221,0],[-72.518279,-8.248482,0],[-72.518079,-8.248581,0],[-72.517752,-8.248714,0],[-72.517677,-8.248994,0],[-72.517848,-8.249194,0],[-72.518057,-8.249249,0],[-72.518347,-8.249215,0],[-72.518711,-8.249136,0],[-72.519017,-8.249463,0],[-72.519186,-8.249961,0],[-72.51903,-8.250213,0],[-72.518785,-8.250338,0],[-72.518567,-8.250337,0],[-72.518223,-8.25028,0],[-72.517841,-8.250332,0],[-72.517686,-8.250548,0],[-72.517647,-8.250855,0],[-72.517763,-8.251181,0],[-72.517952,-8.251526,0],[-72.517968,-8.251752,0],[-72.517776,-8.252004,0],[-72.517754,-8.252609,0],[-72.517397,-8.25324,0],[-72.517075,-8.253952,0],[-72.517037,-8.254159,0],[-72.516673,-8.254428,0],[-72.516254,-8.254687,0],[-72.515997,-8.255183,0],[-72.515895,-8.255508,0],[-72.515875,-8.255815,0],[-72.515719,-8.256022,0],[-72.515319,-8.256227,0],[-72.515162,-8.25656,0],[-72.514935,-8.256731,0],[-72.514472,-8.256719,0],[-72.514281,-8.256745,0],[-72.514324,-8.257088,0],[-72.514511,-8.257659,0],[-72.514393,-8.257794,0],[-72.514164,-8.258154,0],[-72.514279,-8.258579,0],[-72.514548,-8.259006,0],[-72.51469,-8.259513,0],[-72.514704,-8.260182,0],[-72.514574,-8.260678,0],[-72.514401,-8.260812,0],[-72.51411,-8.260928,0],[-72.513756,-8.260872,0],[-72.513457,-8.260852,0],[-72.513285,-8.260905,0],[-72.513173,-8.261302,0],[-72.512963,-8.261535,0],[-72.512745,-8.261597,0],[-72.512464,-8.26155,0],[-72.512255,-8.26154,0],[-72.512083,-8.261602,0],[-72.511809,-8.261817,0],[-72.511162,-8.262365,0],[-72.510934,-8.262435,0],[-72.510745,-8.262226,0],[-72.510267,-8.261844,0],[-72.509668,-8.261786,0],[-72.509387,-8.261739,0],[-72.509132,-8.261891,0],[-72.509013,-8.262198,0],[-72.509181,-8.262867,0],[-72.508814,-8.263425,0],[-72.50836,-8.263531,0],[-72.507754,-8.263256,0],[-72.507239,-8.262855,0],[-72.506913,-8.262781,0],[-72.505325,-8.262825,0],[-72.50471,-8.262577,0],[-72.504175,-8.262574,0],[-72.503811,-8.262698,0],[-72.5036,-8.26304,0],[-72.503391,-8.263193,0],[-72.5031,-8.263173,0],[-72.502848,-8.262882,0],[-72.502467,-8.262925,0],[-72.502292,-8.263321,0],[-72.502161,-8.263917,0],[-72.501952,-8.264106,0],[-72.501314,-8.264526,0],[-72.501257,-8.264978,0],[-72.501363,-8.265385,0],[-72.501405,-8.265864,0],[-72.501213,-8.26617,0],[-72.500995,-8.266187,0],[-72.500805,-8.266087,0],[-72.500689,-8.26586,0],[-72.500427,-8.265623,0],[-72.499993,-8.265422,0],[-72.499177,-8.265326,0],[-72.49813,-8.265817,0],[-72.497949,-8.26578,0],[-72.497517,-8.26528,0],[-72.497318,-8.265179,0],[-72.4971,-8.265241,0],[-72.496853,-8.265529,0],[-72.496091,-8.266988,0],[-72.495051,-8.267885,0],[-72.494968,-8.268165,0],[-72.495111,-8.268419,0],[-72.495264,-8.268682,0],[-72.495733,-8.269037,0],[-72.495803,-8.269435,0],[-72.495747,-8.269706,0],[-72.494571,-8.270647,0],[-72.494167,-8.271314,0],[-72.493244,-8.272474,0],[-72.492378,-8.273182,0],[-72.491326,-8.274495,0],[-72.490536,-8.275954,0],[-72.490363,-8.276161,0],[-72.489282,-8.276308,0],[-72.428909,-8.28436,0],[-72.427829,-8.284501,0],[-72.477481,-8.236028,0],[-72.477085,-8.235014,0],[-72.475094,-8.22994,0],[-72.473998,-8.22715,0],[-72.473598,-8.226135,0],[-72.474615,-8.22574,0],[-72.496759,-8.217091,0],[-72.497768,-8.216698,0],[-72.498857,-8.216696,0],[-72.500725,-8.216696,0],[-72.508345,-8.216695,0],[-72.509433,-8.216698,0],[-72.510479,-8.216379,0],[-72.525892,-8.211682,0],[-72.526928,-8.211365,0],[-72.526886,-8.21029,0],[-72.526451,-8.200236,0],[-72.526429,-8.199722,0],[-72.526381,-8.198638,0],[-72.525312,-8.198422,0],[-72.506894,-8.194687,0],[-72.505826,-8.194471,0],[-72.505417,-8.193465,0],[-72.4915,-8.159057,0],[-72.475674,-8.119917,0],[-72.47527,-8.118912,0],[-72.475794,-8.118753,0],[-72.476305,-8.1186,0],[-72.501019,-8.111081,0],[-72.518954,-8.105623,0],[-72.51999,-8.105306,0],[-72.519653,-8.104274,0],[-72.518644,-8.101177,0],[-72.514431,-8.088245,0],[-72.514098,-8.087214,0],[-72.514914,-8.087228,0],[-72.515769,-8.086691,0],[-72.516981,-8.085722,0],[-72.517337,-8.08548,0],[-72.518492,-8.084791,0],[-72.519292,-8.084507,0],[-72.520445,-8.084369,0],[-72.52117,-8.084428,0],[-72.52203,-8.084569,0],[-72.522709,-8.084817,0],[-72.523551,-8.085075,0],[-72.523587,-8.085084,0],[-72.524068,-8.085024,0],[-72.524495,-8.084891,0],[-72.524832,-8.084676,0],[-72.525188,-8.084326,0],[-72.52548,-8.083885,0],[-72.525618,-8.083642,0],[-72.526005,-8.08256,0],[-72.52608,-8.08218,0],[-72.526476,-8.081306,0],[-72.526924,-8.080658,0],[-72.52706,-8.080569,0],[-72.527107,-8.080406,0],[-72.527253,-8.08029,0],[-72.527563,-8.079885,0],[-72.528429,-8.07914,0],[-72.528739,-8.078934,0],[-72.529193,-8.078747,0],[-72.530002,-8.078562,0],[-72.530237,-8.07869,0],[-72.530754,-8.078612,0],[-72.531225,-8.07875,0],[-72.531514,-8.078851,0],[-72.531541,-8.078924,0],[-72.531686,-8.078988,0],[-72.531984,-8.079189,0],[-72.53211,-8.079352,0],[-72.532651,-8.079753,0],[-72.533474,-8.080183,0],[-72.533936,-8.080312,0],[-72.534878,-8.080381,0],[-72.536302,-8.080362,0],[-72.538007,-8.080346,0],[-72.538515,-8.080385,0],[-72.540058,-8.080087,0],[-72.540503,-8.080017,0],[-72.540985,-8.079812,0],[-72.541348,-8.079616,0],[-72.541867,-8.079411,0],[-72.542275,-8.079314,0],[-72.543129,-8.079174,0],[-72.544455,-8.078721,0],[-72.545273,-8.07841,0],[-72.546154,-8.07818,0],[-72.547369,-8.07817,0],[-72.548294,-8.078265,0],[-72.548765,-8.078359,0],[-72.549707,-8.078464,0],[-72.55017,-8.078448,0],[-72.550642,-8.078343,0],[-72.551088,-8.078138,0],[-72.551706,-8.077816,0],[-72.552098,-8.077556,0],[-72.55267,-8.077325,0],[-72.553142,-8.077228,0],[-72.553614,-8.077204,0],[-72.554086,-8.077234,0],[-72.554557,-8.077309,0],[-72.555489,-8.077531,0],[-72.55655,-8.077538,0],[-72.556877,-8.077513,0],[-72.557286,-8.077271,0],[-72.558034,-8.076571,0],[-72.559523,-8.074826,0],[-72.560686,-8.074399,0],[-72.561167,-8.074294,0],[-72.561613,-8.074152,0],[-72.562049,-8.073965,0],[-72.562896,-8.073328,0],[-72.563334,-8.07287,0],[-72.564137,-8.071971,0],[-72.564529,-8.071657,0],[-72.565211,-8.071317,0],[-72.565937,-8.07124,0],[-72.566848,-8.070668,0],[-72.595434,-8.052984,0],[-72.596355,-8.052413,0],[-72.596707,-8.052587,0],[-72.599023,-8.053586,0],[-72.599756,-8.053861,0],[-72.600217,-8.054018,0],[-72.600687,-8.054237,0],[-72.601157,-8.054502,0],[-72.601591,-8.054857,0],[-72.602313,-8.055313,0],[-72.603322,-8.054994,0],[-72.604059,-8.054519,0],[-72.605373,-8.053126,0],[-72.606396,-8.051858,0],[-72.607117,-8.051012,0],[-72.607547,-8.050418,0],[-72.608067,-8.049933,0],[-72.609073,-8.048376,0],[-72.609804,-8.047449,0],[-72.611119,-8.045938,0],[-72.611529,-8.045543,0],[-72.612203,-8.045023,0],[-72.612885,-8.044819,0],[-72.613783,-8.044715,0],[-72.615469,-8.044852,0],[-72.616963,-8.045168,0],[-72.617923,-8.045435,0],[-72.620286,-8.046091,0],[-72.623567,-8.046227,0],[-72.627014,-8.046067,0],[-72.628656,-8.045904,0],[-72.629809,-8.045703,0],[-72.630988,-8.045674,0],[-72.63223,-8.045853,0],[-72.633017,-8.04611,0],[-72.63488,-8.046898,0],[-72.636375,-8.047268,0],[-72.636471,-8.046184,0],[-72.634966,-8.038647,0],[-72.634753,-8.037579,0],[-72.634896,-8.036505,0],[-72.635568,-8.031472,0],[-72.638149,-8.012166,0],[-72.63844,-8.010007,0],[-72.640608,-8.009802,0],[-72.724028,-8.001866,0],[-72.726187,-8.001661,0],[-72.726099,-7.999491000000001,0],[-72.725722,-7.990721,0],[-72.725673,-7.989635999999999,0],[-72.726162,-7.989728999999999,0],[-72.728357,-7.989704999999999,0],[-72.731126,-7.988996999999999,0],[-72.732743,-7.988527,0],[-72.734353,-7.987596,0],[-72.735163,-7.987013,0],[-72.735972,-7.986773,0],[-72.736776,-7.985612,0],[-72.737923,-7.984687,0],[-72.739422,-7.984216,0],[-72.742952,-7.983784,0],[-72.74324,-7.984074,0],[-72.743702,-7.984122,0],[-72.744202,-7.984024999999999,0],[-72.744648,-7.983702,0],[-72.745249,-7.983209,0],[-72.745686,-7.982886000000001,0],[-72.746448,-7.982718,0],[-72.746867,-7.982458,0],[-72.747109,-7.981393,0],[-72.747211,-7.980905,0],[-72.747376,-7.980635,0],[-72.74754,-7.980464,0]],[[-72.74316,-8.001962,0],[-72.742897,-8.001942,0],[-72.742471,-8.001967,0],[-72.742144,-8.002056,0],[-72.741589,-8.002333,0],[-72.740331,-8.003591,0],[-72.739208,-8.005049,0],[-72.737015,-8.008047,0],[-72.735917,-8.009713,0],[-72.735597,-8.010344,0],[-72.735468,-8.010696,0],[-72.735374,-8.011175,0],[-72.735344,-8.011663,0],[-72.735397,-8.012061,0],[-72.735522,-8.012341,0],[-72.735693,-8.012596,0],[-72.735901,-8.012777,0],[-72.736695,-8.013487,0],[-72.737859,-8.01446,0],[-72.738517,-8.015151,0],[-72.738743,-8.015369,0],[-72.738897,-8.015397,0],[-72.739024,-8.015353,0],[-72.739197,-8.015254,0],[-72.739224,-8.0152,0],[-72.739225,-8.015128,0],[-72.739162,-8.015019,0],[-72.738323,-8.014101,0],[-72.737304,-8.013192,0],[-72.737142,-8.012992,0],[-72.737007,-8.012829,0],[-72.736853,-8.012629,0],[-72.73671,-8.012375,0],[-72.73663,-8.012076,0],[-72.736532,-8.011796,0],[-72.736488,-8.01156,0],[-72.736481,-8.011154,0],[-72.736548,-8.01053,0],[-72.736667,-8.010197,0],[-72.736842,-8.009728,0],[-72.737226,-8.009142,0],[-72.737647,-8.008593,0],[-72.737976,-8.008116,0],[-72.738926,-8.006874,0],[-72.739692,-8.00592,0],[-72.740122,-8.005289,0],[-72.740434,-8.004613,0],[-72.740654,-8.004135,0],[-72.74081,-8.003901,0],[-72.741011,-8.003676,0],[-72.741221,-8.003379,0],[-72.741558,-8.003092,0],[-72.74184,-8.002876,0],[-72.742195,-8.002725,0],[-72.742503,-8.002672,0],[-72.742957,-8.002666,0],[-72.7434,-8.002776,0],[-72.743708,-8.002959,0],[-72.743942,-8.003177,0],[-72.744222,-8.003459,0],[-72.744439,-8.003614,0],[-72.744692,-8.003724,0],[-72.744973,-8.003797,0],[-72.7451,-8.003744,0],[-72.7452,-8.003627,0],[-72.745255,-8.003474,0],[-72.745265,-8.003374,0],[-72.745239,-8.00322,0],[-72.744552,-8.002683,0],[-72.7441,-8.002446,0],[-72.743748,-8.002254,0],[-72.743513,-8.002144,0],[-72.74316,-8.001962,0]]]]},"properties":{"name":"Valparaiso1","description":"<html xmlns:fo=\"http://www.w3.org/1999/XSL/Format\" xmlns:msxsl=\"urn:schemas-microsoft-com:xslt\">\n\n<head>\n\n<META http-equiv=\"Content-Type\" content=\"text/html\">\n\n</head>\n\n<body style=\"margin:0px 0px 0px 0px;overflow:auto;background:#FFFFFF;\">\n\n<table style=\"font-family:Arial,Verdana,Times;font-size:12px;text-align:left;width:100;border-collapse:collapse;padding:3px 3px 3px 3px\">\n\n<tr style=\"text-align:center;font-weight:bold;background:#9CBCE2\">\n\n<td>Valparaiso1</td>\n\n</tr>\n\n<tr>\n\n<td>\n\n<table style=\"font-family:Arial,Verdana,Times;font-size:12px;text-align:left;width:100;border-spacing:0px; padding:3px 3px 3px 3px\">\n\n<tr>\n\n<td>FID</td>\n\n<td>0</td>\n\n</tr>\n\n<tr bgcolor=\"#D4E4F3\">\n\n<td>Hectares</td>\n\n<td>22824.699</td>\n\n</tr>\n\n<tr>\n\n<td>Name</td>\n\n<td>Valparaiso1</td>\n\n</tr>\n\n</table>\n\n</td>\n\n</tr>\n\n</table>\n\n</body>\n\n</html>"}},
{"type":"Feature","id":"ID_00001","geometry":{"type":"MultiPolygon","coordinates":[[[[-72.376968,-8.079985,0],[-72.367095,-8.097967,0],[-72.357075,-8.116165,0],[-72.34073,-8.123893,0],[-72.323302,-8.131938,0],[-72.295308,-8.132322,0],[-72.256235,-8.147031,0],[-72.251829,-8.101625,0],[-72.288783,-8.08578,0],[-72.376968,-8.079985,0]]]]},"properties":{"name":"Valparaiso2","description":"<html xmlns:fo=\"http://www.w3.org/1999/XSL/Format\" xmlns:msxsl=\"urn:schemas-microsoft-com:xslt\">\n\n<head>\n\n<META http-equiv=\"Content-Type\" content=\"text/html\">\n\n</head>\n\n<body style=\"margin:0px 0px 0px 0px;overflow:auto;background:#FFFFFF;\">\n\n<table style=\"font-family:Arial,Verdana,Times;font-size:12px;text-align:left;width:100;border-collapse:collapse;padding:3px 3px 3px 3px\">\n\n<tr style=\"text-align:center;font-weight:bold;background:#9CBCE2\">\n\n<td>Valparaiso2</td>\n\n</tr>\n\n<tr>\n\n<td>\n\n<table style=\"font-family:Arial,Verdana,Times;font-size:12px;text-align:left;width:100;border-spacing:0px; padding:3px 3px 3px 3px\">\n\n<tr>\n\n<td>FID</td>\n\n<td>1</td>\n\n</tr>\n\n<tr bgcolor=\"#D4E4F3\">\n\n<td>Hectares</td>\n\n<td>6194.3301</td>\n\n</tr>\n\n<tr>\n\n<td>Name</td>\n\n<td>Valparaiso2</td>\n\n</tr>\n\n</table>\n\n</td>\n\n</tr>\n\n</table>\n\n</body>\n\n</html>"}}
]}
